{"type":"FeatureCollection","name":"alignment_B","features":[{"type":"Feature","properties":{"rute":"surgem_B","fungsi":"base_alignment","catatan":"Geometry dasar full-route untuk merekonstruksi segmen yang coordinates-nya kosong."},"geometry":{"type":"LineString","coordinates":[[112.72180820000005,-7.224302099999932],[112.7219047000001,-7.224583099999961],[112.7219219000001,-7.22468989999993],[112.72193070000003,-7.2247557999999685],[112.72193350000009,-7.224832899999967],[112.72188670000003,-7.225103999999931],[112.72160910000002,-7.226653399999975],[112.72133660000009,-7.227900399999953],[112.72111390000009,-7.228737399999943],[112.7208561000001,-7.229447499999935],[112.72073100000011,-7.229749599999934],[112.7205944000001,-7.230070999999953],[112.72032290000004,-7.230608299999972],[112.72012490000009,-7.230954399999973],[112.71994920000009,-7.231256999999971],[112.71965080000007,-7.231722299999944],[112.71926520000011,-7.232268099999942],[112.71758880000004,-7.2345231999999555],[112.71724280000001,-7.2350101999999765],[112.71626680000008,-7.236284299999966],[112.71576770000001,-7.236916699999938],[112.71511050000004,-7.2378532999999265],[112.71393820000003,-7.239375799999948],[112.71313910000003,-7.240420999999969],[112.71284320000007,-7.240830399999936],[112.71228880000001,-7.241546399999947],[112.71050430000003,-7.2439765999999395],[112.71016960000009,-7.244538499999976],[112.70990350000011,-7.245049399999971],[112.70968040000002,-7.245585799999958],[112.70951730000002,-7.246045599999945],[112.70936280000001,-7.246616099999926],[112.70923890000006,-7.247239299999933],[112.70920060000003,-7.247929499999941],[112.70918290000009,-7.249094499999956],[112.70923490000007,-7.2506711999999425],[112.70922860000007,-7.252679099999966],[112.70923700000003,-7.253635699999961],[112.7092659000001,-7.255047299999944],[112.70928420000007,-7.256690599999956],[112.70928200000003,-7.257441899999947],[112.70931140000005,-7.258556299999952],[112.70932760000005,-7.2608134999999265],[112.70932700000003,-7.262200899999925],[112.70929330000001,-7.263473999999974],[112.70917110000005,-7.265312999999935],[112.7091104000001,-7.266293999999959],[112.70904740000003,-7.26729169999993],[112.70902090000004,-7.267635499999926],[112.70891210000002,-7.2694280999999705],[112.70890960000008,-7.26951669999994],[112.70889960000011,-7.269627599999978],[112.7087934000001,-7.271331999999973],[112.70852250000007,-7.2754474999999275],[112.7084109000001,-7.277090699999974],[112.70835800000009,-7.278091999999958],[112.70826680000005,-7.279293199999927],[112.70820040000001,-7.279949099999953],[112.70813810000004,-7.280407299999979],[112.70800130000009,-7.281093799999951],[112.70792150000011,-7.281481499999927],[112.70790340000008,-7.281552699999963],[112.7077465000001,-7.2820621999999275],[112.7076164,-7.282466599999964],[112.70743130000005,-7.282929599999932],[112.7072945000001,-7.283220899999947],[112.70710680000002,-7.2835933999999725],[112.7068627000001,-7.283997799999952],[112.70665480000002,-7.284315699999979],[112.7065086,-7.284495299999946],[112.70617600000003,-7.2849076999999625],[112.7059306000001,-7.285161799999969],[112.70569590000002,-7.285386599999981],[112.70533520000004,-7.285691199999974],[112.70508970000003,-7.285888099999966],[112.70503810000002,-7.28592539999994],[112.70458350000001,-7.286263199999951],[112.70413090000011,-7.286571899999956],[112.703573,-7.286929699999973],[112.7031009000001,-7.287215699999933],[112.7010888000001,-7.288545799999952],[112.70025700000008,-7.289179399999966],[112.69981360000008,-7.289580899999976],[112.69935310000005,-7.290028799999959],[112.69906380000009,-7.290407499999958],[112.69902360000003,-7.290470999999968],[112.69887080000001,-7.29067619999995],[112.69864040000004,-7.29103809999998],[112.69840610000006,-7.2915051999999605],[112.69824360000007,-7.2918862999999305],[112.69806030000007,-7.292480799999964],[112.69793900000002,-7.2931153999999765],[112.69789990000004,-7.293480199999976],[112.69787270000006,-7.294261899999981],[112.69790710000007,-7.2953626999999415],[112.69801470000004,-7.296554899999933],[112.69814990000009,-7.298241099999927],[112.69837490000009,-7.300868599999944],[112.69846200000006,-7.301880399999959],[112.69851730000005,-7.30238879999996],[112.69864390000009,-7.303050799999937],[112.69880910000006,-7.303666899999939],[112.69901410000011,-7.30425189999994],[112.69931580000002,-7.30483049999998],[112.69955610000011,-7.305197899999939],[112.69969920000005,-7.3053941999999665],[112.6998688000001,-7.305583699999943],[112.70004620000009,-7.3057772999999315],[112.70025870000006,-7.30596879999996],[112.70053940000003,-7.3062075999999365],[112.70084080000004,-7.306421499999942],[112.70114290000004,-7.306603999999936],[112.70129440000005,-7.306689799999958],[112.70145530000002,-7.306769799999927],[112.70179670000005,-7.306920599999955],[112.70197370000005,-7.306999799999971],[112.7021463000001,-7.307068699999945],[112.70247730000006,-7.307184699999937],[112.70290530000011,-7.307315699999947],[112.70348710000007,-7.307480599999963],[112.7040598000001,-7.307641599999954],[112.70531910000011,-7.307984499999975],[112.70798500000001,-7.308656399999961],[112.70811300000003,-7.308692099999973],[112.70900340000003,-7.3089400999999725],[112.70970080000006,-7.309144899999978],[112.7103102000001,-7.309357699999964],[112.71079080000004,-7.309562099999937],[112.71126290000007,-7.309774899999979],[112.71178650000002,-7.310072899999966],[112.71237870000004,-7.310489999999959],[112.71295110000005,-7.310942399999931],[112.7135588000001,-7.3115130999999565],[112.71453780000002,-7.3125872999999615],[112.71586690000004,-7.314234099999965],[112.71626250000008,-7.314819499999942],[112.71662300000003,-7.315457999999978],[112.71670970000002,-7.31566399999997],[112.71684720000007,-7.3160177999999405],[112.71700070000009,-7.31653069999993],[112.71704740000007,-7.316763099999946],[112.71709400000009,-7.317114599999968],[112.71711540000001,-7.317558899999938],[112.7171221000001,-7.317773699999975],[112.71711140000002,-7.318249199999968],[112.71703830000001,-7.318898399999966],[112.71689980000008,-7.319614999999942],[112.71680300000003,-7.320038999999952],[112.71590040000001,-7.323814699999957],[112.71582430000001,-7.324132899999938],[112.71497770000008,-7.328277999999955],[112.71485580000001,-7.328926999999965],[112.71428200000003,-7.332711299999971],[112.71410720000006,-7.333941299999935],[112.71404130000008,-7.334428999999943],[112.71385470000007,-7.335522899999944],[112.7137136,-7.33626449999997],[112.7135254000001,-7.337180499999931],[112.71318330000008,-7.338553299999944],[112.71306720000007,-7.338984399999958],[112.71304180000004,-7.339074099999948],[112.71299030000011,-7.3392727999999465],[112.71290230000011,-7.339595999999972],[112.71252310000011,-7.340838299999973],[112.71225780000009,-7.341635199999928],[112.71181530000001,-7.342972699999962],[112.71135920000006,-7.344306699999947],[112.71129370000006,-7.344518799999946],[112.71120880000001,-7.344828999999947],[112.71108920000006,-7.345260999999937],[112.71080770000003,-7.3462780999999495],[112.71049550000009,-7.347589199999959],[112.71047950000002,-7.347656799999982],[112.71046640000009,-7.347717799999941],[112.71038310000006,-7.3481047999999305],[112.71024490000002,-7.348698299999967],[112.71005890000004,-7.349524499999973],[112.70999930000005,-7.349820799999975],[112.70976610000002,-7.351183299999946],[112.70959340000002,-7.352195399999971],[112.70938940000008,-7.353201799999965],[112.7091544000001,-7.354201399999965],[112.70888850000006,-7.355193399999962],[112.70859210000003,-7.35617689999998],[112.70826540000007,-7.357150899999965],[112.70790870000008,-7.358114499999942],[112.70752240000002,-7.359066799999937],[112.70710680000002,-7.360006799999951],[112.70668380000006,-7.3609177999999815],[112.70656090000011,-7.361164699999961],[112.70643490000009,-7.3614127999999255],[112.70610160000001,-7.362033899999972],[112.70592060000001,-7.36237239999997],[112.70535460000008,-7.3633519999999635],[112.70496370000001,-7.36396179999997],[112.70421800000008,-7.365075099999956],[112.70258440000009,-7.367265799999927],[112.7020179000001,-7.368082999999956],[112.70152870000004,-7.36879799999997],[112.70110810000006,-7.369470499999977],[112.70064460000003,-7.370219499999962],[112.70024120000005,-7.370960099999934],[112.6997262000001,-7.372007099999962],[112.69931420000012,-7.372926399999926],[112.69882500000006,-7.374169199999926],[112.69855030000008,-7.374969299999975],[112.69824130000006,-7.376016299999947],[112.69800100000009,-7.376901499999974],[112.69783840000002,-7.377683699999977],[112.69777270000009,-7.378016199999934],[112.69764800000007,-7.37863729999998],[112.69745080000007,-7.3798728999999526],[112.69735380000009,-7.3805807999999615],[112.69731800000011,-7.380807799999957],[112.69715040000006,-7.3819954999999595],[112.69708070000001,-7.382534199999952],[112.69689490000007,-7.383962199999928],[112.69667170000002,-7.385443299999963],[112.69651720000002,-7.3864306999999485],[112.69630260000008,-7.387673399999926],[112.69608800000003,-7.3888820999999325],[112.69584770000006,-7.390141799999981],[112.69553010000004,-7.391776099999959],[112.69515250000006,-7.393529499999943],[112.69489500000009,-7.3946359999999345],[112.69465710000009,-7.395882699999959],[112.69453350000003,-7.396530999999925],[112.69444800000008,-7.397087099999965],[112.69433120000008,-7.397913599999981],[112.69425440000009,-7.398742699999957],[112.69420490000005,-7.399341899999968],[112.69416540000009,-7.400721799999928],[112.69419980000009,-7.402279399999941],[112.69423410000002,-7.403028499999948],[112.69433440000012,-7.403819099999964],[112.69475590000002,-7.406677599999966],[112.69501250000008,-7.408471899999938],[112.69514010000012,-7.409729499999969],[112.6951782000001,-7.410935599999959],[112.6952040000001,-7.411812299999951],[112.69517930000006,-7.412574599999971],[112.6951299000001,-7.41348899999997],[112.6950495000001,-7.414237999999955],[112.69498850000002,-7.414771899999948],[112.69491550000009,-7.415299199999936],[112.69483030000004,-7.41583849999995],[112.69478470000001,-7.416145699999959],[112.69473170000003,-7.416384599999958],[112.69468080000001,-7.41670019999998],[112.69463410000003,-7.416997899999956],[112.69456480000008,-7.417311999999981],[112.69450310000002,-7.41756659999993],[112.69447510000009,-7.417698199999961],[112.69428560000006,-7.418408499999941],[112.69408820000001,-7.419140499999969],[112.69392100000005,-7.419689699999935],[112.69368900000006,-7.420490399999949],[112.69352250000009,-7.420990399999937],[112.69321920000004,-7.422164299999963],[112.69309890000011,-7.422600799999941],[112.69299320000005,-7.423010199999965],[112.69295860000011,-7.423192899999947],[112.69289680000009,-7.423607799999957],[112.69284280000011,-7.423941399999933],[112.69280260000005,-7.424291799999935],[112.69275080000011,-7.42508689999994],[112.69274280000002,-7.425827399999946],[112.69276480000008,-7.426439399999936],[112.69281310000008,-7.427078699999981],[112.6929123000001,-7.427804799999933],[112.69301530000007,-7.428366499999981],[112.69314410000004,-7.4289026999999805],[112.69320620000008,-7.429157099999941],[112.69328140000005,-7.429430399999944],[112.69349620000003,-7.430066599999975],[112.69360590000008,-7.43036589999997],[112.69369710000001,-7.430610599999966],[112.69380280000007,-7.430896399999938],[112.69411900000011,-7.43168049999997],[112.69459690000008,-7.432816799999955],[112.69509430000005,-7.434014599999955],[112.69566640000005,-7.435456199999976],[112.69621550000011,-7.4371353999999315],[112.69645490000005,-7.438014399999929],[112.6965077000001,-7.4382322999999815],[112.69681330000003,-7.439631299999974],[112.6970070000001,-7.4407871999999315],[112.69710620000001,-7.441609599999936],[112.69718670000009,-7.442375499999969],[112.69723380000005,-7.443259799999964],[112.69726300000002,-7.444241199999965],[112.69725440000002,-7.445086599999968],[112.69721170000003,-7.446448999999973],[112.69720920000009,-7.446523799999966],[112.69719300000008,-7.446960499999932],[112.69712210000012,-7.447674199999938],[112.69698950000009,-7.448504599999978],[112.69687950000002,-7.449219999999968],[112.69681910000008,-7.449749199999928],[112.69666360000008,-7.4504620999999815],[112.69650000000001,-7.451165399999979],[112.69629080000004,-7.451900799999976],[112.6961017000001,-7.452594999999974],[112.69604990000005,-7.4527925999999525],[112.69562810000002,-7.454165199999977],[112.69530550000002,-7.455259499999954],[112.69514820000006,-7.455805199999929],[112.69499560000008,-7.456355099999939],[112.69490610000003,-7.456643299999939],[112.69402940000009,-7.459645899999941],[112.69379090000007,-7.460407299999929],[112.69354420000002,-7.461169299999938],[112.69180070000004,-7.46623429999994],[112.69099430000006,-7.468611899999928],[112.69060560000003,-7.469867099999931],[112.6901954000001,-7.471168899999952],[112.68950160000009,-7.473342899999977],[112.68933320000008,-7.473889699999972],[112.68878030000008,-7.475656599999979],[112.6884123000001,-7.476801199999954],[112.68820050000011,-7.4775529999999435],[112.68807250000009,-7.478128599999934],[112.68796710000004,-7.478655799999956],[112.6878799000001,-7.479175299999952],[112.68780490000006,-7.479692899999975],[112.6877922000001,-7.479791399999954],[112.68771100000004,-7.480816899999979],[112.68768120000004,-7.481708399999945],[112.68768520000003,-7.482544399999938],[112.68774530000007,-7.483523099999957],[112.68783110000004,-7.484331499999939],[112.68794890000004,-7.485041799999976],[112.68811440000002,-7.485897299999976],[112.68827900000008,-7.486552099999926],[112.68844800000011,-7.48713209999994],[112.6885519000001,-7.487487599999952],[112.68896680000012,-7.488630299999954],[112.68919000000005,-7.489181099999939],[112.68953970000007,-7.489922299999932],[112.68976100000009,-7.490354099999934],[112.69039580000003,-7.491457499999967],[112.69058790000008,-7.491763599999956],[112.69127770000011,-7.492826799999932],[112.69186090000005,-7.493719499999941],[112.69481080000003,-7.498238899999933],[112.69495000000006,-7.498452899999961],[112.69609430000003,-7.500206499999933],[112.69680460000006,-7.501285999999936],[112.69733210000004,-7.502107699999954],[112.6977104,-7.5026990999999725],[112.69803620000005,-7.5032551999999555],[112.69823510000003,-7.503601499999945],[112.69839760000002,-7.503898699999979],[112.69852590000005,-7.504160499999955],[112.69854780000003,-7.504208399999925],[112.69881410000005,-7.504771299999959],[112.69896760000006,-7.505163799999934],[112.69908360000011,-7.50547169999993],[112.69919290000007,-7.505792099999951],[112.69928170000003,-7.506095899999934],[112.69935120000002,-7.506384499999967],[112.69942500000002,-7.506705499999953],[112.69950130000007,-7.507055299999934],[112.69956300000001,-7.507422199999951],[112.69962010000006,-7.507907499999931],[112.69965690000004,-7.508206599999937],[112.69968240000003,-7.508612199999959],[112.6996931000001,-7.509021699999948],[112.6996918000001,-7.509456399999976],[112.69967640000004,-7.509883999999943],[112.69966090000003,-7.5101571999999805],[112.69959260000007,-7.510750199999961],[112.69954020000011,-7.511101099999962],[112.69946080000011,-7.511457499999949],[112.69937130000005,-7.5118576999999505],[112.6993096000001,-7.512090399999977],[112.69924920000005,-7.512288499999954],[112.69914330000006,-7.512642199999959],[112.69894090000003,-7.51319529999995],[112.69873760000007,-7.513683299999968],[112.69851300000005,-7.514140599999962],[112.69825950000006,-7.51461519999998],[112.69760570000005,-7.51575889999998],[112.69672320000006,-7.517261599999927],[112.6938613000001,-7.5221153999999615],[112.69263220000005,-7.524188199999969],[112.69238010000004,-7.524616199999969],[112.69136220000007,-7.526395299999933],[112.69091900000001,-7.527151799999956],[112.6898394000001,-7.529038799999967],[112.68968280000001,-7.529300999999975],[112.68870950000007,-7.530962899999963],[112.68860350000011,-7.531143799999938],[112.68849080000007,-7.531334499999957],[112.68568670000002,-7.536067599999967],[112.68455250000011,-7.538017599999932],[112.6843411000001,-7.538390999999933],[112.68421010000009,-7.538632299999961],[112.68406920000007,-7.538916799999981],[112.6839245000001,-7.539227199999971],[112.68377900000007,-7.539560299999948],[112.68365480000011,-7.539919599999962],[112.68356570000003,-7.5401844999999525],[112.68348270000001,-7.540472299999976],[112.68340010000009,-7.5407714999999484],[112.68333530000007,-7.541074999999978],[112.68327270000009,-7.541381699999931],[112.68322110000008,-7.5417750999999384],[112.68318950000003,-7.542049099999929],[112.68316900000002,-7.542337399999951],[112.68316450000009,-7.5431312999999705],[112.68318010000007,-7.5434955999999715],[112.68322670000009,-7.5439393999999425],[112.68328740000004,-7.544343799999979],[112.68334510000011,-7.5446774999999775],[112.68342150000001,-7.54500459999997],[112.68351540000003,-7.545366199999933],[112.68367350000005,-7.545866399999966],[112.68373670000005,-7.546046899999965],[112.6838064000001,-7.546217699999943],[112.68394250000006,-7.546562799999947],[112.68409480000003,-7.546898499999941],[112.68424630000004,-7.547194299999944],[112.68441380000002,-7.547486099999958],[112.68462720000002,-7.547833799999978],[112.68484300000011,-7.548149499999965],[112.68509720000009,-7.548488499999962],[112.68536700000004,-7.548810899999978],[112.68577660000005,-7.54925309999993],[112.68610100000001,-7.549556799999948],[112.6864445000001,-7.549847599999964],[112.68674610000005,-7.550096499999938],[112.68707270000004,-7.550334899999939],[112.68771290000007,-7.550738999999965],[112.68821650000007,-7.551002199999971],[112.68870070000003,-7.551217599999973],[112.68940680000003,-7.551512399999979],[112.69046360000004,-7.551953499999968],[112.6905263000001,-7.5519784999999615],[112.69059200000004,-7.5520049999999515],[112.69292160000009,-7.552961299999936],[112.69324700000004,-7.553086099999973],[112.6968726,-7.554525199999944],[112.70176310000011,-7.556466099999966],[112.70246820000011,-7.556705399999942],[112.70319040000004,-7.556885799999975],[112.70389750000004,-7.557002799999964],[112.704383,-7.557044299999973],[112.70486270000004,-7.55706379999998],[112.70515120000005,-7.5570628999999485],[112.70542010000008,-7.55705219999993],[112.70566560000009,-7.5570361999999704],[112.70591000000002,-7.557017999999971],[112.70617980000009,-7.5569922999999335],[112.70677780000005,-7.556927599999938]]}}]}