{"type":"FeatureCollection","name":"alignment_A","features":[{"type":"Feature","properties":{"rute":"surgem_A","fungsi":"base_alignment","catatan":"Geometry dasar full-route untuk merekonstruksi segmen yang coordinates-nya kosong."},"geometry":{"type":"LineString","coordinates":[[112.72234280000009,-7.224413799999979],[112.72212560000003,-7.2247052999999255],[112.72207380000009,-7.224818099999936],[112.72203460000003,-7.224932099999933],[112.72200110000006,-7.225029199999938],[112.72198700000001,-7.225083699999971],[112.72197530000005,-7.225154399999951],[112.72168220000003,-7.226688699999954],[112.72141610000006,-7.227940399999966],[112.7212032000001,-7.22875769999996],[112.72094370000002,-7.229464899999925],[112.72081820000005,-7.2297801999999365],[112.72074710000004,-7.229955799999971],[112.72067470000002,-7.230117099999973],[112.72051110000007,-7.230444099999943],[112.72033010000007,-7.230782799999929],[112.72025230000008,-7.2309216999999535],[112.72016310000004,-7.231075399999952],[112.71998430000008,-7.2313702999999805],[112.71973490000005,-7.231759499999953],[112.71935640000004,-7.232310699999971],[112.71765860000005,-7.23458839999995],[112.71725360000005,-7.235168499999929],[112.7163574000001,-7.236365699999965],[112.71615960000008,-7.236621599999978],[112.71591130000002,-7.236958399999935],[112.71578040000009,-7.237112799999977],[112.71517510000001,-7.237945799999977],[112.71399050000002,-7.239434399999936],[112.71336320000012,-7.240336899999932],[112.71278640000003,-7.241157599999951],[112.71275700000001,-7.241189899999938],[112.71270430000004,-7.241253899999947],[112.71261890000005,-7.241365299999927],[112.7121350000001,-7.241917499999943],[112.71183880000001,-7.242307699999969],[112.71074470000008,-7.243840299999931],[112.71070710000004,-7.243899499999941],[112.71040990000006,-7.24436819999994],[112.71014380000008,-7.2448620999999775],[112.70995500000004,-7.245228199999929],[112.7097748000001,-7.245636899999965],[112.7096289000001,-7.246113699999967],[112.70947440000009,-7.246735299999955],[112.70938000000001,-7.2472375999999485],[112.70933190000005,-7.247773999999936],[112.70931990000008,-7.248412599999938],[112.70930750000002,-7.249105499999928],[112.70932960000005,-7.252676799999961],[112.70933300000002,-7.25288809999995],[112.70942610000009,-7.256240799999944],[112.70945210000002,-7.257457799999941],[112.70943580000005,-7.257808499999953],[112.7094363000001,-7.258175299999948],[112.70945640000002,-7.259048999999948],[112.7094737000001,-7.259761699999956],[112.70947520000004,-7.259857799999963],[112.70946980000008,-7.261640499999942],[112.70940890000008,-7.263612499999965],[112.70928200000003,-7.265453299999933],[112.70914960000005,-7.2673107999999615],[112.70912590000012,-7.267642399999943],[112.70902510000008,-7.269448499999953],[112.70902060000003,-7.269528799999932],[112.70856990000004,-7.276866499999926],[112.70835080000006,-7.279729999999972],[112.70829100000003,-7.2801957999999445],[112.7081971,-7.2807105999999635],[112.70803150000006,-7.281500799999947],[112.70800600000007,-7.281591999999932],[112.7078484000001,-7.282130099999961],[112.70775450000008,-7.2824306999999635],[112.70765260000007,-7.282701399999951],[112.70756540000002,-7.282916299999954],[112.7074434000001,-7.283186299999954],[112.70724490000009,-7.283577399999956],[112.70701420000012,-7.28399509999997],[112.7068332,-7.284274499999981],[112.7066334000001,-7.2845338999999285],[112.70637590000001,-7.284861099999944],[112.7060815000001,-7.28518239999994],[112.70578710000007,-7.2854650999999535],[112.7055256000001,-7.285689899999966],[112.70528020000006,-7.285889399999974],[112.70514610000009,-7.285998499999948],[112.70488860000012,-7.286188799999934],[112.70367920000001,-7.286968499999944],[112.7032355,-7.287253499999963],[112.70181480000008,-7.288185699999929],[112.70088030000011,-7.2888399999999365],[112.7002678,-7.289326199999948],[112.69991670000002,-7.289628799999946],[112.69950490000008,-7.2900582999999415],[112.6990737000001,-7.290576499999929],[112.69892870000001,-7.290787499999965],[112.69878670000003,-7.291005799999937],[112.69861220000007,-7.29132089999996],[112.69845570000007,-7.291657099999952],[112.69830350000007,-7.292153999999925],[112.69814780000002,-7.292789899999946],[112.69805240000005,-7.293327199999965],[112.69801010000003,-7.293733999999972],[112.69798350000008,-7.294149999999945],[112.6980367000001,-7.2954888999999525],[112.6982547,-7.297959099999957],[112.69860390000008,-7.302086999999972],[112.69871690000002,-7.302839799999958],[112.69882120000011,-7.303314099999966],[112.69897780000008,-7.303803899999934],[112.69918160000009,-7.304344199999946],[112.6994327000001,-7.304801599999962],[112.69975250000005,-7.305254599999955],[112.69983030000003,-7.305356299999971],[112.69991540000001,-7.305454999999938],[112.70009230000005,-7.305650999999955],[112.70028390000004,-7.30583809999996],[112.7004836000001,-7.3060122999999635],[112.70090870000001,-7.306323299999974],[112.70140790000005,-7.306605499999932],[112.70168400000011,-7.3067479999999705],[112.70196880000003,-7.306880599999943],[112.70231530000001,-7.307016399999952],[112.70265800000004,-7.307129699999962],[112.70557230000009,-7.307899199999952],[112.70793870000011,-7.308509599999979],[112.70815020000009,-7.308571299999926],[112.70905620000008,-7.308818199999962],[112.7097702000001,-7.309059599999955],[112.71033960000011,-7.309281999999939],[112.71082890000002,-7.309477799999968],[112.71130950000008,-7.309699099999932],[112.71183310000004,-7.310005599999954],[112.71242530000006,-7.310397199999954],[112.71295600000008,-7.310817499999928],[112.7132772000001,-7.311106799999948],[112.71377270000005,-7.311572999999953],[112.71444930000007,-7.312307899999951],[112.71525130000009,-7.3132609999999545],[112.71600300000011,-7.314265999999975],[112.71617260000005,-7.314499099999978],[112.71628600000008,-7.3146723999999494],[112.71646970000006,-7.314970999999957],[112.71659980000004,-7.315203099999962],[112.71674660000008,-7.315499099999954],[112.71694850000006,-7.3160018999999465],[112.71707120000008,-7.316388299999971],[112.7171181000001,-7.316586499999971],[112.71714290000011,-7.316730799999959],[112.7171892,-7.3170599999999695],[112.7172220000001,-7.317635399999972],[112.71721600000001,-7.318214599999976],[112.71718990000011,-7.318533899999977],[112.71713760000011,-7.318905699999959],[112.71707920000006,-7.319270099999926],[112.71697270000004,-7.319781999999975],[112.71600930000011,-7.323833199999967],[112.71594110000001,-7.324149699999964],[112.71516330000009,-7.328104499999938],[112.71498310000004,-7.32911009999998],[112.71440880000011,-7.3327103999999395],[112.71422800000005,-7.333947199999955],[112.71414850000008,-7.334476799999948],[112.71404660000007,-7.335059099999967],[112.71396640000012,-7.33553969999997],[112.71389190000002,-7.335937799999954],[112.71380780000004,-7.3363853999999264],[112.7137173000001,-7.3368266999999605],[112.71358540000006,-7.337394599999925],[112.71337460000007,-7.3382528999999295],[112.71326710000005,-7.338688999999931],[112.71317770000007,-7.339005699999973],[112.7131415,-7.339132399999926],[112.71310530000005,-7.3392579999999725],[112.71297860000004,-7.339723599999957],[112.71288690000006,-7.340042399999959],[112.71260250000012,-7.340969899999948],[112.71220220000009,-7.34211659999994],[112.71195300000011,-7.342861299999981],[112.7116261000001,-7.3438617999999565],[112.71159210000008,-7.343959499999926],[112.71146080000005,-7.344337699999926],[112.71124540000005,-7.345105399999966],[112.71111960000007,-7.345555599999955],[112.71096200000011,-7.346155299999964],[112.71094610000011,-7.346207399999969],[112.71076750000009,-7.346976499999926],[112.71062890000007,-7.3476188999999295],[112.71060950000003,-7.347698599999944],[112.71059880000007,-7.34774729999998],[112.71033960000011,-7.348864599999956],[112.7101216000001,-7.349871099999973],[112.70986940000012,-7.3512183999999365],[112.70966420000002,-7.352313699999968],[112.7094360000001,-7.35343389999997],[112.70916900000009,-7.354545499999972],[112.70886340000004,-7.35564729999993],[112.70851960000005,-7.35673799999995],[112.70813800000008,-7.357816299999968],[112.70771910000008,-7.358880799999952],[112.7072634000001,-7.359930399999939],[112.7067714000001,-7.360963699999957],[112.70667830000002,-7.361168099999929],[112.70649460000004,-7.361530499999958],[112.70619550000004,-7.362103099999956],[112.70586760000003,-7.3626709999999775],[112.70538610000006,-7.363486999999964],[112.70453450000002,-7.3648050999999555],[112.70271350000007,-7.367268199999955],[112.70205260000012,-7.368161999999927],[112.70139170000004,-7.369166499999949],[112.70067940000001,-7.37034959999994],[112.70003560000009,-7.371566899999948],[112.6994863000001,-7.372741599999927],[112.69905720000008,-7.373814099999947],[112.6986022000001,-7.375099399999954],[112.69819030000008,-7.376495399999953],[112.69792690000008,-7.3776251999999545],[112.69773780000003,-7.378642599999978],[112.69754340000009,-7.379822299999944],[112.69742400000007,-7.380588399999965],[112.69739270000002,-7.380812799999944],[112.69729340000004,-7.381528699999933],[112.69718660000001,-7.382353299999977],[112.69713890000003,-7.382703299999946],[112.6966926,-7.385878199999979],[112.6963492000001,-7.388065799999936],[112.69598020000001,-7.390074599999934],[112.69546520000006,-7.392559999999946],[112.69505270000002,-7.394484699999964],[112.69480940000005,-7.39570539999994],[112.69464740000001,-7.396550799999943],[112.6945717000001,-7.39710649999995],[112.69446610000011,-7.397966799999949],[112.69439280000006,-7.398783399999957],[112.69433600000002,-7.39988059999996],[112.69432280000001,-7.400874999999928],[112.69430890000001,-7.402336899999966],[112.69445770000004,-7.403800899999965],[112.69486720000009,-7.40668009999996],[112.69510910000008,-7.408466199999964],[112.69523140000001,-7.409729999999968],[112.6952874000001,-7.4114951999999334],[112.69529760000012,-7.412573899999927],[112.69524870000009,-7.413487199999963],[112.69517580000002,-7.414236399999936],[112.69511620000003,-7.414773099999934],[112.69500200000004,-7.415618999999936],[112.69495640000002,-7.415935499999932],[112.69479540000009,-7.416724199999976],[112.69451920000006,-7.418012799999929],[112.69439310000007,-7.4184955999999715],[112.69421470000009,-7.419128599999965],[112.69406050000009,-7.419601999999941],[112.69371580000006,-7.420789599999978],[112.69352000000003,-7.421485099999927],[112.69340740000007,-7.421872099999973],[112.69320960000005,-7.422629699999959],[112.69316330000004,-7.422824299999945],[112.69311670000002,-7.423019199999942],[112.69307480000009,-7.423206899999968],[112.69299810000007,-7.423616799999934],[112.69293800000003,-7.424252599999932],[112.69288250000011,-7.424530699999934],[112.69285220000006,-7.42511049999996],[112.69284710000011,-7.425822299999936],[112.69287100000008,-7.426514899999972],[112.69292970000004,-7.427127399999961],[112.69301740000003,-7.427827499999978],[112.69305470000006,-7.428019999999947],[112.69308280000007,-7.428129099999978],[112.69310430000007,-7.428248799999949],[112.6931992000001,-7.4286822999999345],[112.69330410000009,-7.429087899999956],[112.69341170000007,-7.42946319999993],[112.69357500000001,-7.429977599999972],[112.6937448000001,-7.4304219999999646],[112.69382310000003,-7.430613199999925],[112.69418660000008,-7.431564099999946],[112.69442530000003,-7.432146599999953],[112.69469060000006,-7.432768099999976],[112.69516830000009,-7.433915199999944],[112.69561240000007,-7.434998499999949],[112.69582140000011,-7.435590799999943],[112.69600650000007,-7.436156499999981],[112.69631330000004,-7.437098799999944],[112.69658520000007,-7.4380347999999685],[112.69663780000008,-7.438244899999972],[112.6968849000001,-7.439461899999969],[112.69705480000005,-7.440445999999952],[112.69711310000002,-7.4407979999999725],[112.69722950000005,-7.441748899999936],[112.69731370000011,-7.442746899999975],[112.69737920000011,-7.4436103999999546],[112.69738380000001,-7.443868899999927],[112.6973911,-7.444275599999969],[112.69739000000004,-7.4444729999999595],[112.69738780000012,-7.44544019999995],[112.6973799000001,-7.445785699999931],[112.69735530000003,-7.4465549999999325],[112.69732160000001,-7.4469821999999795],[112.69725050000011,-7.447635899999966],[112.69717320000007,-7.448342299999979],[112.6970788000001,-7.449014599999941],[112.69692840000005,-7.449812399999928],[112.69671200000005,-7.450849999999946],[112.69642620000002,-7.451940399999955],[112.69610220000004,-7.45301859999995],[112.6956116,-7.454656999999941],[112.6950776000001,-7.456384499999956],[112.69498520000002,-7.4566725999999335],[112.69428710000011,-7.459121499999981],[112.69413830000008,-7.459622799999977],[112.69399750000002,-7.460076199999946],[112.69384460000003,-7.460541699999965],[112.69366490000004,-7.461085499999967],[112.69353080000008,-7.461501699999928],[112.6918879000001,-7.46626619999995],[112.69107720000011,-7.468639099999962],[112.6907936,-7.469569299999932],[112.68997020000006,-7.472186199999953],[112.68959330000007,-7.473361599999976],[112.68942270000002,-7.473908799999947],[112.68886770000006,-7.4756845999999655],[112.68844800000011,-7.477002299999981],[112.68831660000001,-7.477502299999969],[112.68819380000002,-7.477997099999925],[112.68807650000008,-7.478575299999932],[112.68796120000002,-7.479258799999968],[112.68789580000009,-7.47970909999998],[112.68788530000006,-7.479813999999976],[112.68780020000008,-7.4807559999999285],[112.68777610000006,-7.4816136999999685],[112.68777470000009,-7.482217399999968],[112.68779390000009,-7.482872799999939],[112.68785120000007,-7.483513899999934],[112.68795040000009,-7.48440329999994],[112.68803630000002,-7.484952599999929],[112.68821140000011,-7.485881899999981],[112.68842250000012,-7.4867236999999704],[112.68867870000008,-7.4875639999999635],[112.68892380000011,-7.488250899999969],[112.6891829000001,-7.4889016999999285],[112.68945250000002,-7.489515899999958],[112.6896713000001,-7.489963499999931],[112.69008410000004,-7.490728599999954],[112.69050660000005,-7.4914439999999445],[112.6906742000001,-7.491711299999963],[112.69159560000003,-7.493127299999969],[112.69190670000012,-7.493608699999982],[112.69418250000001,-7.497120299999949],[112.69489670000007,-7.4982058999999595],[112.69503180000004,-7.498419699999943],[112.69606510000006,-7.499988999999971],[112.69712300000003,-7.501614399999937],[112.69742170000006,-7.502074199999981],[112.69762620000006,-7.5023634999999445],[112.69785920000004,-7.502731899999958],[112.69800940000005,-7.502979899999957],[112.69814080000003,-7.503191999999956],[112.69831650000003,-7.503495899999962],[112.69850430000008,-7.503848199999936],[112.69864140000004,-7.504103399999963],[112.69882670000004,-7.504480399999977],[112.69900710000002,-7.504872599999942],[112.69914060000008,-7.505221099999972],[112.69923850000009,-7.505503499999975],[112.69932300000005,-7.505768199999977],[112.69940480000002,-7.506057999999939],[112.69949200000008,-7.50639979999994],[112.69958050000002,-7.506756099999961],[112.6996435000001,-7.50708439999994],[112.69970930000011,-7.507492699999943],[112.69976950000012,-7.507989899999927],[112.69980440000006,-7.508398099999965],[112.69982720000007,-7.508868799999959],[112.69983060000004,-7.5093912999999475],[112.6998152000001,-7.509921799999972],[112.6997884000001,-7.510264499999948],[112.6997421000001,-7.5107108999999355],[112.69968640000002,-7.511102499999936],[112.6995783000001,-7.511600699999974],[112.69949870000005,-7.511925599999927],[112.69943560000002,-7.5121621999999775],[112.69937590000006,-7.51237029999993],[112.6992613000001,-7.512721899999974],[112.69905080000001,-7.513302999999951],[112.69893270000011,-7.513594199999943],[112.69879800000001,-7.513892099999964],[112.69859080000003,-7.51430019999998],[112.69839960000002,-7.5146788999999785],[112.69773530000009,-7.515837499999975],[112.69684930000005,-7.517343599999947],[112.69527430000005,-7.520033399999932],[112.69400650000011,-7.522146799999973],[112.69275700000003,-7.524234599999943],[112.69250620000003,-7.524668199999951],[112.69155260000002,-7.526328799999931],[112.69103970000003,-7.527204999999981],[112.68993480000006,-7.529069599999957],[112.68976630000009,-7.5293587999999545],[112.68880000000001,-7.531014099999936],[112.6885794000001,-7.531391699999972],[112.68752400000005,-7.53317329999993],[112.68578520000005,-7.536119499999927],[112.68493500000011,-7.5375706999999466],[112.68464150000011,-7.538064599999927],[112.68443940000009,-7.538441099999943],[112.68430400000011,-7.538681499999939],[112.68416310000009,-7.538971699999934],[112.68401830000005,-7.539278399999944],[112.68388030000006,-7.539611499999978],[112.68374990000007,-7.539978299999973],[112.68365490000008,-7.540236999999934],[112.6835771000001,-7.54051359999994],[112.68350670000007,-7.5407833999999525],[112.68343490000007,-7.541083299999968],[112.68337860000008,-7.541397599999925],[112.68332630000009,-7.541777899999943],[112.68329280000012,-7.542057099999965],[112.68327540000007,-7.542344999999955],[112.68327130000011,-7.5431482999999275],[112.68329140000003,-7.54349689999998],[112.68333700000005,-7.5439276999999265],[112.68338930000004,-7.544334499999934],[112.68344960000002,-7.544638999999961],[112.68352750000008,-7.5449965999999336],[112.68361870000001,-7.545346299999949],[112.68377150000003,-7.545828899999947],[112.68383860000006,-7.546014999999954],[112.68391240000005,-7.546209099999942],[112.68404310000005,-7.546529499999963],[112.6841945000001,-7.54686049999998],[112.68434350000007,-7.547145099999966],[112.68452090000005,-7.54745209999993],[112.68471430000011,-7.547769899999935],[112.68492330000004,-7.548081199999956],[112.68518440000003,-7.54841209999995],[112.6854449000001,-7.548743499999944],[112.6858502,-7.5491744999999355],[112.6861755000001,-7.5494736999999645],[112.6865097000001,-7.549770699999954],[112.68681850000007,-7.550018099999932],[112.68715000000009,-7.550256699999977],[112.68776170000001,-7.55064509999994],[112.68825800000002,-7.550909199999978],[112.68873070000006,-7.5511273999999275],[112.6894377000001,-7.551408699999968],[112.69051790000003,-7.551819999999964],[112.6905819000001,-7.551845699999944],[112.69064660000004,-7.551870899999926],[112.69288040000004,-7.5527406999999585],[112.69322150000005,-7.55288969999998],[112.69690960000003,-7.554367799999966],[112.70182100000011,-7.556309399999975],[112.70252100000005,-7.55654409999994],[112.70322140000007,-7.556727399999943],[112.70391380000001,-7.556834599999945],[112.7043883,-7.556880799999931],[112.70488100000011,-7.556898899999965],[112.70513770000002,-7.556899299999941],[112.70540540000002,-7.556888799999967],[112.70564320000005,-7.556874299999947],[112.70591850000005,-7.556850999999938],[112.70647500000007,-7.55679379999998],[112.70704910000006,-7.556729999999959],[112.70757800000001,-7.556667799999957]]}}]}