{"type":"FeatureCollection","features":[{"type":"Feature","id":1,"geometry":{"type":"Point","coordinates":[112.7130370000001,-7.3456094999999664]},"properties":{"OBJECTID":1,"F_id":"node/320086721","barrier":"toll_booth","name":"Gerbang Tol Waru 1 dan Ramp","operator":null,"currency_IDR":"yes","payment_electronic_purses":"yes","motorcycle":null,"note":null,"name_1":"Gerbang Tol Waru 1 dan Ramp","Tanggal":"2023","KM_Dari":0,"KM_Sampai":200,"Jalur":"A","Lajur":"ARAHBUNDARANWARU","Gerbang":"Off Ramp Waru 1","Keterangan":"Scraping Filling AC WC"}},{"type":"Feature","id":2,"geometry":{"type":"Point","coordinates":[112.70217470000011,-7.2899911999999745]},"properties":{"OBJECTID":2,"F_id":"node/414269492","barrier":"toll_booth","name":"Gerbang Tol Kota Satelit","operator":null,"currency_IDR":null,"payment_electronic_purses":null,"motorcycle":null,"note":null,"name_1":"Gerbang Tol Kota Satelit","Tanggal":"2024-05-29","KM_Dari":0,"KM_Sampai":200,"Jalur":"B","Lajur":"KIRI","Gerbang":"Off Ramp Kota Satelit","Keterangan":"Scraping Filling AC WC"}},{"type":"Feature","id":3,"geometry":{"type":"Point","coordinates":[112.71207960000004,-7.2416227999999592]},"properties":{"OBJECTID":3,"F_id":"node/417252480","barrier":"toll_booth","name":"Gerbang tol Dupak 2","operator":null,"currency_IDR":null,"payment_electronic_purses":null,"motorcycle":null,"note":null,"name_1":"Gerbang tol Dupak 2","Tanggal":"2023","KM_Dari":0,"KM_Sampai":200,"Jalur":"B","Lajur":"B/KANAN","Gerbang":"Off Ramp Dupak 2","Keterangan":"Scraping Filling AC WC"}},{"type":"Feature","id":4,"geometry":{"type":"Point","coordinates":[112.71300440000005,-7.3457413999999517]},"properties":{"OBJECTID":4,"F_id":"node/417277459","barrier":"toll_booth","name":"Gerbang Tol Waru 1 dan Ramp","operator":null,"currency_IDR":"yes","payment_electronic_purses":"yes","motorcycle":null,"note":null,"name_1":"Gerbang Tol Waru 1 dan Ramp","Tanggal":"2023","KM_Dari":0,"KM_Sampai":200,"Jalur":"A","Lajur":"ARAHBUNDARANWARU","Gerbang":"Off Ramp Waru 1","Keterangan":"Scraping Filling AC WC"}},{"type":"Feature","id":5,"geometry":{"type":"Point","coordinates":[112.7086144000001,-7.3076984999999581]},"properties":{"OBJECTID":5,"F_id":"node/420812067","barrier":"toll_booth","name":"Gerbang Tol Gunung Sari 1","operator":null,"currency_IDR":null,"payment_electronic_purses":null,"motorcycle":null,"note":null,"name_1":"Gerbang Tol Gunung Sari 1","Tanggal":"2023","KM_Dari":0,"KM_Sampai":200,"Jalur":"A","Lajur":"1","Gerbang":"Off Ramp Gunung Sari 1","Keterangan":"Overlay AC WC"}},{"type":"Feature","id":6,"geometry":{"type":"Point","coordinates":[112.70747870000002,-7.2629029999999375]},"properties":{"OBJECTID":6,"F_id":"node/1091384566","barrier":"toll_booth","name":"Toll Banyu Urip","operator":null,"currency_IDR":null,"payment_electronic_purses":null,"motorcycle":null,"note":null,"name_1":"Toll Banyu Urip","Tanggal":"2024-06-09","KM_Dari":0,"KM_Sampai":200,"Jalur":"A","Lajur":"KANAN","Gerbang":"On Ramp Banyu Urip","Keterangan":"Scraping Filling AC WC"}},{"type":"Feature","id":7,"geometry":{"type":"Point","coordinates":[112.69985670000005,-7.4464281999999571]},"properties":{"OBJECTID":7,"F_id":"node/6986209640","barrier":"toll_booth","name":"Sidoarjo Exit Gate","operator":null,"currency_IDR":null,"payment_electronic_purses":null,"motorcycle":null,"note":null,"name_1":"Sidoarjo Exit Gate","Tanggal":"2025-10-28","KM_Dari":756200,"KM_Sampai":756400,"Jalur":"B","Lajur":null,"Gerbang":"Off Ramp Sidoarjo","Keterangan":"Scrapping Filling AC WC"}},{"type":"Feature","id":8,"geometry":{"type":"Point","coordinates":[112.71253810000007,-7.3456956999999647]},"properties":{"OBJECTID":8,"F_id":"node/12816176569","barrier":"toll_booth","name":"Gerbang Tol Waru 1 dan Ramp","operator":null,"currency_IDR":"yes","payment_electronic_purses":"yes","motorcycle":null,"note":null,"name_1":"Gerbang Tol Waru 1 dan Ramp","Tanggal":"2023","KM_Dari":0,"KM_Sampai":200,"Jalur":"A","Lajur":"ARAHBUNDARANWARU","Gerbang":"Off Ramp Waru 1","Keterangan":"Scraping Filling AC WC"}},{"type":"Feature","id":9,"geometry":{"type":"Point","coordinates":[112.71349200000009,-7.345672699999966]},"properties":{"OBJECTID":9,"F_id":"node/12816176587","barrier":"toll_booth","name":"Gerbang Tol Waru 1 dan Ramp","operator":null,"currency_IDR":"yes","payment_electronic_purses":"yes","motorcycle":null,"note":null,"name_1":"Gerbang Tol Waru 1 dan Ramp","Tanggal":"2023","KM_Dari":0,"KM_Sampai":200,"Jalur":"A","Lajur":"ARAHBUNDARANWARU","Gerbang":"Off Ramp Waru 1","Keterangan":"Scraping Filling AC WC"}},{"type":"Feature","id":10,"geometry":{"type":"Point","coordinates":[112.67819150000003,-7.2385425999999597]},"properties":{"OBJECTID":10,"F_id":"node/260113849","barrier":"toll_booth","name":"Tandes Barat","operator":null,"currency_IDR":null,"payment_electronic_purses":null,"motorcycle":null,"note":null,"name_1":null,"Tanggal":null,"KM_Dari":null,"KM_Sampai":null,"Jalur":null,"Lajur":null,"Gerbang":null,"Keterangan":null}},{"type":"Feature","id":11,"geometry":{"type":"Point","coordinates":[112.7096805000001,-7.2465915999999311]},"properties":{"OBJECTID":11,"F_id":"node/417252451","barrier":"toll_booth","name":"Dupak 3","operator":null,"currency_IDR":null,"payment_electronic_purses":null,"motorcycle":null,"note":null,"name_1":null,"Tanggal":null,"KM_Dari":null,"KM_Sampai":null,"Jalur":null,"Lajur":null,"Gerbang":null,"Keterangan":null}},{"type":"Feature","id":12,"geometry":{"type":"Point","coordinates":[112.71060950000003,-7.3476985999999442]},"properties":{"OBJECTID":12,"F_id":"node/417277418","barrier":"toll_booth","name":"Gerbang Tol Waru Utama","operator":null,"currency_IDR":"yes","payment_electronic_purses":"yes","motorcycle":null,"note":null,"name_1":null,"Tanggal":null,"KM_Dari":null,"KM_Sampai":null,"Jalur":null,"Lajur":null,"Gerbang":null,"Keterangan":null}},{"type":"Feature","id":13,"geometry":{"type":"Point","coordinates":[112.71047950000002,-7.3476567999999816]},"properties":{"OBJECTID":13,"F_id":"node/417277424","barrier":"toll_booth","name":"Gerbang Tol Waru Utama","operator":null,"currency_IDR":"yes","payment_electronic_purses":"yes","motorcycle":null,"note":null,"name_1":null,"Tanggal":null,"KM_Dari":null,"KM_Sampai":null,"Jalur":null,"Lajur":null,"Gerbang":null,"Keterangan":null}},{"type":"Feature","id":14,"geometry":{"type":"Point","coordinates":[112.71275700000001,-7.241189899999938]},"properties":{"OBJECTID":14,"F_id":"node/420460802","barrier":"toll_booth","name":"Gerbang tol Dupak 1","operator":null,"currency_IDR":null,"payment_electronic_purses":null,"motorcycle":"no","note":"PAY","name_1":null,"Tanggal":null,"KM_Dari":null,"KM_Sampai":null,"Jalur":null,"Lajur":null,"Gerbang":null,"Keterangan":null}},{"type":"Feature","id":15,"geometry":{"type":"Point","coordinates":[112.69936460000008,-7.4458765999999628]},"properties":{"OBJECTID":15,"F_id":"node/420841019","barrier":"toll_booth","name":null,"operator":null,"currency_IDR":null,"payment_electronic_purses":null,"motorcycle":null,"note":null,"name_1":null,"Tanggal":null,"KM_Dari":null,"KM_Sampai":null,"Jalur":null,"Lajur":null,"Gerbang":null,"Keterangan":null}},{"type":"Feature","id":16,"geometry":{"type":"Point","coordinates":[112.69926870000006,-7.4459410999999704]},"properties":{"OBJECTID":16,"F_id":"node/420860125","barrier":"toll_booth","name":null,"operator":null,"currency_IDR":null,"payment_electronic_purses":null,"motorcycle":null,"note":null,"name_1":null,"Tanggal":null,"KM_Dari":null,"KM_Sampai":null,"Jalur":null,"Lajur":null,"Gerbang":null,"Keterangan":null}},{"type":"Feature","id":17,"geometry":{"type":"Point","coordinates":[112.69933260000005,-7.5073893999999655]},"properties":{"OBJECTID":17,"F_id":"node/420927476","barrier":"toll_booth","name":"Porong","operator":null,"currency_IDR":null,"payment_electronic_purses":null,"motorcycle":null,"note":null,"name_1":null,"Tanggal":null,"KM_Dari":null,"KM_Sampai":null,"Jalur":null,"Lajur":null,"Gerbang":null,"Keterangan":null}},{"type":"Feature","id":18,"geometry":{"type":"Point","coordinates":[112.70800130000009,-7.3098514999999793]},"properties":{"OBJECTID":18,"F_id":"node/420957767","barrier":"toll_booth","name":"Gerbang Tol Gunung Sari 2","operator":null,"currency_IDR":null,"payment_electronic_purses":null,"motorcycle":null,"note":null,"name_1":null,"Tanggal":null,"KM_Dari":null,"KM_Sampai":null,"Jalur":null,"Lajur":null,"Gerbang":null,"Keterangan":null}},{"type":"Feature","id":19,"geometry":{"type":"Point","coordinates":[112.73470470000007,-7.3446840999999381]},"properties":{"OBJECTID":19,"F_id":"node/660562704","barrier":"toll_booth","name":"Gerbang Tol Menanggal","operator":null,"currency_IDR":null,"payment_electronic_purses":null,"motorcycle":null,"note":null,"name_1":null,"Tanggal":null,"KM_Dari":null,"KM_Sampai":null,"Jalur":null,"Lajur":null,"Gerbang":null,"Keterangan":null}},{"type":"Feature","id":20,"geometry":{"type":"Point","coordinates":[112.6460929000001,-7.2019848999999567]},"properties":{"OBJECTID":20,"F_id":"node/1091080127","barrier":"toll_booth","name":"Romokalisari","operator":null,"currency_IDR":null,"payment_electronic_purses":null,"motorcycle":null,"note":null,"name_1":null,"Tanggal":null,"KM_Dari":null,"KM_Sampai":null,"Jalur":null,"Lajur":null,"Gerbang":null,"Keterangan":null}},{"type":"Feature","id":21,"geometry":{"type":"Point","coordinates":[112.68446730000005,-7.2410312999999746]},"properties":{"OBJECTID":21,"F_id":"node/1091080702","barrier":"toll_booth","name":"Tandes Timur 1","operator":null,"currency_IDR":null,"payment_electronic_purses":null,"motorcycle":null,"note":null,"name_1":null,"Tanggal":null,"KM_Dari":null,"KM_Sampai":null,"Jalur":null,"Lajur":null,"Gerbang":null,"Keterangan":null}},{"type":"Feature","id":22,"geometry":{"type":"Point","coordinates":[112.68443000000002,-7.24044559999993]},"properties":{"OBJECTID":22,"F_id":"node/1091081168","barrier":"toll_booth","name":"Tandes Timur 2","operator":null,"currency_IDR":null,"payment_electronic_purses":null,"motorcycle":null,"note":null,"name_1":null,"Tanggal":null,"KM_Dari":null,"KM_Sampai":null,"Jalur":null,"Lajur":null,"Gerbang":null,"Keterangan":null}},{"type":"Feature","id":23,"geometry":{"type":"Point","coordinates":[112.67812560000004,-7.2387189999999464]},"properties":{"OBJECTID":23,"F_id":"node/1091081881","barrier":"toll_booth","name":"Tandes Barat","operator":null,"currency_IDR":null,"payment_electronic_purses":null,"motorcycle":null,"note":null,"name_1":null,"Tanggal":null,"KM_Dari":null,"KM_Sampai":null,"Jalur":null,"Lajur":null,"Gerbang":null,"Keterangan":null}},{"type":"Feature","id":24,"geometry":{"type":"Point","coordinates":[112.64588970000011,-7.2019909999999641]},"properties":{"OBJECTID":24,"F_id":"node/1091081913","barrier":"toll_booth","name":"Romokalisari","operator":null,"currency_IDR":null,"payment_electronic_purses":null,"motorcycle":null,"note":null,"name_1":null,"Tanggal":null,"KM_Dari":null,"KM_Sampai":null,"Jalur":null,"Lajur":null,"Gerbang":null,"Keterangan":null}},{"type":"Feature","id":25,"geometry":{"type":"Point","coordinates":[112.67891760000009,-7.2386237999999707]},"properties":{"OBJECTID":25,"F_id":"node/1780865796","barrier":"toll_booth","name":"Tandes Barat","operator":null,"currency_IDR":null,"payment_electronic_purses":null,"motorcycle":null,"note":null,"name_1":null,"Tanggal":null,"KM_Dari":null,"KM_Sampai":null,"Jalur":null,"Lajur":null,"Gerbang":null,"Keterangan":null}},{"type":"Feature","id":26,"geometry":{"type":"Point","coordinates":[112.7123931000001,-7.2429108999999698]},"properties":{"OBJECTID":26,"F_id":"node/1780865842","barrier":"toll_booth","name":"Gerbang Tol Dupak 5","operator":null,"currency_IDR":null,"payment_electronic_purses":null,"motorcycle":null,"note":null,"name_1":null,"Tanggal":null,"KM_Dari":null,"KM_Sampai":null,"Jalur":null,"Lajur":null,"Gerbang":null,"Keterangan":null}},{"type":"Feature","id":27,"geometry":{"type":"Point","coordinates":[112.75810480000007,-7.3426804999999717]},"properties":{"OBJECTID":27,"F_id":"node/2320792128","barrier":"toll_booth","name":"Gerbang Tol Berbek 1","operator":null,"currency_IDR":null,"payment_electronic_purses":null,"motorcycle":null,"note":null,"name_1":null,"Tanggal":null,"KM_Dari":null,"KM_Sampai":null,"Jalur":null,"Lajur":null,"Gerbang":null,"Keterangan":null}},{"type":"Feature","id":28,"geometry":{"type":"Point","coordinates":[112.75237290000007,-7.34315289999995]},"properties":{"OBJECTID":28,"F_id":"node/2320792169","barrier":"toll_booth","name":"Gerbang Tol Berbek 2","operator":null,"currency_IDR":null,"payment_electronic_purses":null,"motorcycle":"no","note":null,"name_1":null,"Tanggal":null,"KM_Dari":null,"KM_Sampai":null,"Jalur":null,"Lajur":null,"Gerbang":null,"Keterangan":null}},{"type":"Feature","id":29,"geometry":{"type":"Point","coordinates":[112.78925750000008,-7.3470282999999768]},"properties":{"OBJECTID":29,"F_id":"node/2623128024","barrier":"toll_booth","name":"Gerbang Tol Tambak Sumur 1","operator":null,"currency_IDR":null,"payment_electronic_purses":null,"motorcycle":"no","note":null,"name_1":null,"Tanggal":null,"KM_Dari":null,"KM_Sampai":null,"Jalur":null,"Lajur":null,"Gerbang":null,"Keterangan":null}},{"type":"Feature","id":30,"geometry":{"type":"Point","coordinates":[112.70948540000006,-7.3454465999999456]},"properties":{"OBJECTID":30,"F_id":"node/2623237896","barrier":"toll_booth","name":"Gerbang Tol Waru 5","operator":null,"currency_IDR":"yes","payment_electronic_purses":"yes","motorcycle":null,"note":null,"name_1":null,"Tanggal":null,"KM_Dari":null,"KM_Sampai":null,"Jalur":null,"Lajur":null,"Gerbang":null,"Keterangan":null}},{"type":"Feature","id":31,"geometry":{"type":"Point","coordinates":[112.71257670000011,-7.3414701999999465]},"properties":{"OBJECTID":31,"F_id":"node/2623237955","barrier":"toll_booth","name":"Gerbang Tol Waru 6","operator":null,"currency_IDR":"yes","payment_electronic_purses":"yes","motorcycle":null,"note":null,"name_1":null,"Tanggal":null,"KM_Dari":null,"KM_Sampai":null,"Jalur":null,"Lajur":null,"Gerbang":null,"Keterangan":null}},{"type":"Feature","id":32,"geometry":{"type":"Point","coordinates":[112.6905819000001,-7.5518456999999444]},"properties":{"OBJECTID":32,"F_id":"node/3027564712","barrier":"toll_booth","name":"Gerbang Tol Kejapanan","operator":null,"currency_IDR":null,"payment_electronic_purses":null,"motorcycle":null,"note":null,"name_1":null,"Tanggal":null,"KM_Dari":null,"KM_Sampai":null,"Jalur":null,"Lajur":null,"Gerbang":null,"Keterangan":null}},{"type":"Feature","id":33,"geometry":{"type":"Point","coordinates":[112.6905263000001,-7.5519784999999615]},"properties":{"OBJECTID":33,"F_id":"node/3027566913","barrier":"toll_booth","name":null,"operator":null,"currency_IDR":null,"payment_electronic_purses":null,"motorcycle":null,"note":null,"name_1":null,"Tanggal":null,"KM_Dari":null,"KM_Sampai":null,"Jalur":null,"Lajur":null,"Gerbang":null,"Keterangan":null}},{"type":"Feature","id":34,"geometry":{"type":"Point","coordinates":[112.69063150000011,-7.551725499999975]},"properties":{"OBJECTID":34,"F_id":"node/3166220589","barrier":"toll_booth","name":null,"operator":"PT Jasa Marga (Persero)","currency_IDR":null,"payment_electronic_purses":null,"motorcycle":null,"note":null,"name_1":null,"Tanggal":null,"KM_Dari":null,"KM_Sampai":null,"Jalur":null,"Lajur":null,"Gerbang":null,"Keterangan":null}},{"type":"Feature","id":35,"geometry":{"type":"Point","coordinates":[112.67941840000003,-7.3397769999999696]},"properties":{"OBJECTID":35,"F_id":"node/3283836675","barrier":"toll_booth","name":"Warugunung","operator":"PT Jasa Marga Surabaya-Mojokerto","currency_IDR":null,"payment_electronic_purses":null,"motorcycle":null,"note":null,"name_1":null,"Tanggal":null,"KM_Dari":null,"KM_Sampai":null,"Jalur":null,"Lajur":null,"Gerbang":null,"Keterangan":null}},{"type":"Feature","id":36,"geometry":{"type":"Point","coordinates":[112.67938520000007,-7.3396694999999568]},"properties":{"OBJECTID":36,"F_id":"node/3283836678","barrier":"toll_booth","name":"Warugunung","operator":"PT Jasa Marga Surabaya-Mojokerto","currency_IDR":null,"payment_electronic_purses":null,"motorcycle":null,"note":null,"name_1":null,"Tanggal":null,"KM_Dari":null,"KM_Sampai":null,"Jalur":null,"Lajur":null,"Gerbang":null,"Keterangan":null}},{"type":"Feature","id":37,"geometry":{"type":"Point","coordinates":[112.71121230000006,-7.3471115999999483]},"properties":{"OBJECTID":37,"F_id":"node/4168511640","barrier":"toll_booth","name":"Gerbang Tol Waru 3","operator":null,"currency_IDR":null,"payment_electronic_purses":null,"motorcycle":null,"note":null,"name_1":null,"Tanggal":null,"KM_Dari":null,"KM_Sampai":null,"Jalur":null,"Lajur":null,"Gerbang":null,"Keterangan":null}},{"type":"Feature","id":38,"geometry":{"type":"Point","coordinates":[112.71439810000004,-7.557346799999948]},"properties":{"OBJECTID":38,"F_id":"node/4170957891","barrier":"toll_booth","name":"GT Gempol 4","operator":null,"currency_IDR":null,"payment_electronic_purses":null,"motorcycle":null,"note":null,"name_1":null,"Tanggal":null,"KM_Dari":null,"KM_Sampai":null,"Jalur":null,"Lajur":null,"Gerbang":null,"Keterangan":null}},{"type":"Feature","id":39,"geometry":{"type":"Point","coordinates":[112.71411510000007,-7.557755899999961]},"properties":{"OBJECTID":39,"F_id":"node/4170957903","barrier":"toll_booth","name":"Gerbang Tol Gempol 1","operator":null,"currency_IDR":null,"payment_electronic_purses":null,"motorcycle":null,"note":null,"name_1":null,"Tanggal":null,"KM_Dari":null,"KM_Sampai":null,"Jalur":null,"Lajur":null,"Gerbang":null,"Keterangan":null}},{"type":"Feature","id":40,"geometry":{"type":"Point","coordinates":[112.71617460000004,-7.5674073999999791]},"properties":{"OBJECTID":40,"F_id":"node/4170957920","barrier":"toll_booth","name":"Gerbang Tol Gempol 3","operator":"PT Jasa Marga (Persero)","currency_IDR":null,"payment_electronic_purses":null,"motorcycle":null,"note":null,"name_1":null,"Tanggal":null,"KM_Dari":null,"KM_Sampai":null,"Jalur":null,"Lajur":null,"Gerbang":null,"Keterangan":null}},{"type":"Feature","id":41,"geometry":{"type":"Point","coordinates":[112.71567920000007,-7.5672699999999509]},"properties":{"OBJECTID":41,"F_id":"node/4170957923","barrier":"toll_booth","name":"GT Gempol 2","operator":"PT Jasa Marga (Persero)","currency_IDR":null,"payment_electronic_purses":null,"motorcycle":null,"note":null,"name_1":null,"Tanggal":null,"KM_Dari":null,"KM_Sampai":null,"Jalur":null,"Lajur":null,"Gerbang":null,"Keterangan":null}},{"type":"Feature","id":42,"geometry":{"type":"Point","coordinates":[112.69046550000007,-7.5521961999999689]},"properties":{"OBJECTID":42,"F_id":"node/4172542827","barrier":"toll_booth","name":null,"operator":"PT Jasa Marga (Persero)","currency_IDR":null,"payment_electronic_purses":null,"motorcycle":null,"note":null,"name_1":null,"Tanggal":null,"KM_Dari":null,"KM_Sampai":null,"Jalur":null,"Lajur":null,"Gerbang":null,"Keterangan":null}},{"type":"Feature","id":43,"geometry":{"type":"Point","coordinates":[112.71112370000003,-7.3439497999999617]},"properties":{"OBJECTID":43,"F_id":"node/4854573326","barrier":"toll_booth","name":"Gerbang Tol Waru 4","operator":null,"currency_IDR":null,"payment_electronic_purses":null,"motorcycle":null,"note":null,"name_1":null,"Tanggal":null,"KM_Dari":null,"KM_Sampai":null,"Jalur":null,"Lajur":null,"Gerbang":null,"Keterangan":null}},{"type":"Feature","id":44,"geometry":{"type":"Point","coordinates":[112.78391110000007,-7.3462331999999719]},"properties":{"OBJECTID":44,"F_id":"node/5009957604","barrier":"toll_booth","name":"Tambak Sumur 2","operator":null,"currency_IDR":null,"payment_electronic_purses":null,"motorcycle":"no","note":null,"name_1":null,"Tanggal":null,"KM_Dari":null,"KM_Sampai":null,"Jalur":null,"Lajur":null,"Gerbang":null,"Keterangan":null}},{"type":"Feature","id":45,"geometry":{"type":"Point","coordinates":[112.63437550000003,-7.3533589999999549]},"properties":{"OBJECTID":45,"F_id":"node/6642924221","barrier":"toll_booth","name":null,"operator":null,"currency_IDR":"yes","payment_electronic_purses":"yes","motorcycle":null,"note":null,"name_1":null,"Tanggal":null,"KM_Dari":null,"KM_Sampai":null,"Jalur":null,"Lajur":null,"Gerbang":null,"Keterangan":null}},{"type":"Feature","id":46,"geometry":{"type":"Point","coordinates":[112.63466940000001,-7.3538497999999777]},"properties":{"OBJECTID":46,"F_id":"node/6642924222","barrier":"toll_booth","name":null,"operator":null,"currency_IDR":"yes","payment_electronic_purses":"yes","motorcycle":null,"note":null,"name_1":null,"Tanggal":null,"KM_Dari":null,"KM_Sampai":null,"Jalur":null,"Lajur":null,"Gerbang":null,"Keterangan":null}},{"type":"Feature","id":47,"geometry":{"type":"Point","coordinates":[112.62536060000002,-7.3548749999999359]},"properties":{"OBJECTID":47,"F_id":"node/6751676405","barrier":"toll_booth","name":"Toll Both Driyorejo 3","operator":"husni falah","currency_IDR":null,"payment_electronic_purses":null,"motorcycle":null,"note":null,"name_1":null,"Tanggal":null,"KM_Dari":null,"KM_Sampai":null,"Jalur":null,"Lajur":null,"Gerbang":null,"Keterangan":null}},{"type":"Feature","id":48,"geometry":{"type":"Point","coordinates":[112.71174460000009,-7.2426883999999632]},"properties":{"OBJECTID":48,"F_id":"node/6758461616","barrier":"toll_booth","name":"Gerbang Tol Dupak 4","operator":null,"currency_IDR":null,"payment_electronic_purses":null,"motorcycle":null,"note":null,"name_1":null,"Tanggal":null,"KM_Dari":null,"KM_Sampai":null,"Jalur":null,"Lajur":null,"Gerbang":null,"Keterangan":null}},{"type":"Feature","id":49,"geometry":{"type":"Point","coordinates":[112.62529760000007,-7.3554628999999636]},"properties":{"OBJECTID":49,"F_id":"node/6765399761","barrier":"toll_booth","name":"Driyorejo 4","operator":"husni falah","currency_IDR":null,"payment_electronic_purses":null,"motorcycle":null,"note":null,"name_1":null,"Tanggal":null,"KM_Dari":null,"KM_Sampai":null,"Jalur":null,"Lajur":null,"Gerbang":null,"Keterangan":null}},{"type":"Feature","id":50,"geometry":{"type":"Point","coordinates":[112.71185430000003,-7.3416937999999732]},"properties":{"OBJECTID":50,"F_id":"node/6850537085","barrier":"toll_booth","name":"Gerbang Tol Waru 4A","operator":null,"currency_IDR":"yes","payment_electronic_purses":"yes","motorcycle":null,"note":null,"name_1":null,"Tanggal":null,"KM_Dari":null,"KM_Sampai":null,"Jalur":null,"Lajur":null,"Gerbang":null,"Keterangan":null}},{"type":"Feature","id":51,"geometry":{"type":"Point","coordinates":[112.71177660000001,-7.3416426999999658]},"properties":{"OBJECTID":51,"F_id":"node/6904447128","barrier":"toll_booth","name":"Gerbang Tol Waru 4B","operator":null,"currency_IDR":"yes","payment_electronic_purses":"yes","motorcycle":null,"note":null,"name_1":null,"Tanggal":null,"KM_Dari":null,"KM_Sampai":null,"Jalur":null,"Lajur":null,"Gerbang":null,"Keterangan":null}},{"type":"Feature","id":52,"geometry":{"type":"Point","coordinates":[112.70941690000006,-7.3454853999999727]},"properties":{"OBJECTID":52,"F_id":"node/6975923069","barrier":"toll_booth","name":"Gerbang Tol Waru 5","operator":null,"currency_IDR":"yes","payment_electronic_purses":"yes","motorcycle":null,"note":null,"name_1":null,"Tanggal":null,"KM_Dari":null,"KM_Sampai":null,"Jalur":null,"Lajur":null,"Gerbang":null,"Keterangan":null}},{"type":"Feature","id":53,"geometry":{"type":"Point","coordinates":[112.69912710000006,-7.4460394999999266]},"properties":{"OBJECTID":53,"F_id":"node/6986518612","barrier":"toll_booth","name":"Sidoarjo Entry Gate","operator":null,"currency_IDR":null,"payment_electronic_purses":null,"motorcycle":null,"note":null,"name_1":null,"Tanggal":null,"KM_Dari":null,"KM_Sampai":null,"Jalur":null,"Lajur":null,"Gerbang":null,"Keterangan":null}},{"type":"Feature","id":54,"geometry":{"type":"Point","coordinates":[112.67951490000007,-7.3393925999999396]},"properties":{"OBJECTID":54,"F_id":"node/7279169464","barrier":"toll_booth","name":"Warugunung","operator":"PT Jasa Marga Surabaya-Mojokerto","currency_IDR":null,"payment_electronic_purses":null,"motorcycle":null,"note":null,"name_1":null,"Tanggal":null,"KM_Dari":null,"KM_Sampai":null,"Jalur":null,"Lajur":null,"Gerbang":null,"Keterangan":null}},{"type":"Feature","id":55,"geometry":{"type":"Point","coordinates":[112.6850429000001,-7.2413096999999311]},"properties":{"OBJECTID":55,"F_id":"node/7745650814","barrier":"toll_booth","name":"Tandes Timur 1","operator":null,"currency_IDR":null,"payment_electronic_purses":null,"motorcycle":null,"note":null,"name_1":null,"Tanggal":null,"KM_Dari":null,"KM_Sampai":null,"Jalur":null,"Lajur":null,"Gerbang":null,"Keterangan":null}},{"type":"Feature","id":56,"geometry":{"type":"Point","coordinates":[112.64628640000001,-7.2014617999999473]},"properties":{"OBJECTID":56,"F_id":"node/7745664972","barrier":"toll_booth","name":"Romokalisari","operator":null,"currency_IDR":null,"payment_electronic_purses":null,"motorcycle":null,"note":null,"name_1":null,"Tanggal":null,"KM_Dari":null,"KM_Sampai":null,"Jalur":null,"Lajur":null,"Gerbang":null,"Keterangan":null}},{"type":"Feature","id":57,"geometry":{"type":"Point","coordinates":[112.6973167000001,-7.4449114999999324]},"properties":{"OBJECTID":57,"F_id":"node/7763380384","barrier":"toll_booth","name":null,"operator":null,"currency_IDR":null,"payment_electronic_purses":null,"motorcycle":null,"note":null,"name_1":null,"Tanggal":null,"KM_Dari":null,"KM_Sampai":null,"Jalur":null,"Lajur":null,"Gerbang":null,"Keterangan":null}},{"type":"Feature","id":58,"geometry":{"type":"Point","coordinates":[112.6973911,-7.444275599999969]},"properties":{"OBJECTID":58,"F_id":"node/7763394496","barrier":"toll_booth","name":"Sidoarjo 2","operator":null,"currency_IDR":null,"payment_electronic_purses":null,"motorcycle":null,"note":null,"name_1":null,"Tanggal":null,"KM_Dari":null,"KM_Sampai":null,"Jalur":null,"Lajur":null,"Gerbang":null,"Keterangan":null}},{"type":"Feature","id":59,"geometry":{"type":"Point","coordinates":[112.6400235000001,-7.2199126999999521]},"properties":{"OBJECTID":59,"F_id":"node/9042150204","barrier":"toll_booth","name":null,"operator":null,"currency_IDR":null,"payment_electronic_purses":null,"motorcycle":null,"note":null,"name_1":null,"Tanggal":null,"KM_Dari":null,"KM_Sampai":null,"Jalur":null,"Lajur":null,"Gerbang":null,"Keterangan":null}},{"type":"Feature","id":60,"geometry":{"type":"Point","coordinates":[112.64010990000008,-7.2199162999999658]},"properties":{"OBJECTID":60,"F_id":"node/9042166959","barrier":"toll_booth","name":null,"operator":null,"currency_IDR":null,"payment_electronic_purses":null,"motorcycle":null,"note":null,"name_1":null,"Tanggal":null,"KM_Dari":null,"KM_Sampai":null,"Jalur":null,"Lajur":null,"Gerbang":null,"Keterangan":null}},{"type":"Feature","id":61,"geometry":{"type":"Point","coordinates":[112.71253560000002,-7.3414648999999486]},"properties":{"OBJECTID":61,"F_id":"node/9580286353","barrier":"toll_booth","name":"Gerbang Tol Waru 6","operator":null,"currency_IDR":null,"payment_electronic_purses":null,"motorcycle":null,"note":null,"name_1":null,"Tanggal":null,"KM_Dari":null,"KM_Sampai":null,"Jalur":null,"Lajur":null,"Gerbang":null,"Keterangan":null}},{"type":"Feature","id":62,"geometry":{"type":"Point","coordinates":[112.67803530000003,-7.2389491999999791]},"properties":{"OBJECTID":62,"F_id":"node/11693463010","barrier":"toll_booth","name":"Tandes Barat","operator":null,"currency_IDR":null,"payment_electronic_purses":null,"motorcycle":null,"note":null,"name_1":null,"Tanggal":null,"KM_Dari":null,"KM_Sampai":null,"Jalur":null,"Lajur":null,"Gerbang":null,"Keterangan":null}}]}