{
  "type": "FeatureCollection",
  "generator": "overpass-turbo",
  "copyright": "The data included in this document is from www.openstreetmap.org. The data is made available under ODbL.",
  "timestamp": "2026-07-13T01:47:59Z",
  "features": [
    {
      "type": "Feature",
      "properties": {
        "@id": "way/28716499",
        "destination": "Pasar Turi;Tanjung Perak;Gresik",
        "destination:ref": "8",
        "highway": "motorway_link",
        "motorcycle": "no",
        "name": "Banyu Urip",
        "oneway": "yes",
        "toll": "yes"
      },
      "geometry": {
        "type": "LineString",
        "coordinates": [
          [
            112.7083664,
            -7.2602188
          ],
          [
            112.7084678,
            -7.2601232
          ],
          [
            112.7085131,
            -7.2600872
          ],
          [
            112.708566,
            -7.2600459
          ],
          [
            112.7086218,
            -7.2600068
          ],
          [
            112.7087286,
            -7.2599227
          ],
          [
            112.7088876,
            -7.2597908
          ],
          [
            112.7089912,
            -7.2596859
          ],
          [
            112.7090582,
            -7.2595842
          ],
          [
            112.7091542,
            -7.2594189
          ],
          [
            112.7091861,
            -7.2593457
          ],
          [
            112.7092074,
            -7.2592713
          ],
          [
            112.7092378,
            -7.2591355
          ],
          [
            112.7092629,
            -7.2589788
          ],
          [
            112.7093114,
            -7.2585563
          ]
        ]
      },
      "id": "way/28716499"
    },
    {
      "type": "Feature",
      "properties": {
        "@id": "way/28773153",
        "destination": "Banyu Urip;Gresik;Tanjung Perak",
        "destination:ref": "8",
        "highway": "motorway_link",
        "motorcycle": "no",
        "note": "Simpang Susun Kota Satelit",
        "oneway": "yes",
        "toll": "yes"
      },
      "geometry": {
        "type": "LineString",
        "coordinates": [
          [
            112.6990903,
            -7.2899765
          ],
          [
            112.6987071,
            -7.289802
          ],
          [
            112.698552,
            -7.289763
          ],
          [
            112.6984005,
            -7.2897563
          ],
          [
            112.6982801,
            -7.2897729
          ],
          [
            112.6981817,
            -7.289818
          ],
          [
            112.6980639,
            -7.2899047
          ],
          [
            112.6979857,
            -7.2900322
          ],
          [
            112.6979519,
            -7.2901435
          ],
          [
            112.6979601,
            -7.2903132
          ],
          [
            112.6980024,
            -7.2904282
          ],
          [
            112.6980768,
            -7.2905438
          ],
          [
            112.6982331,
            -7.2906462
          ],
          [
            112.698383,
            -7.2906824
          ],
          [
            112.6985363,
            -7.2906804
          ],
          [
            112.6986886,
            -7.2906242
          ],
          [
            112.6989211,
            -7.2904498
          ],
          [
            112.6993531,
            -7.2900288
          ]
        ]
      },
      "id": "way/28773153"
    },
    {
      "type": "Feature",
      "properties": {
        "@id": "way/28773154",
        "destination": "Kota Satelit;Dukuh Kupang;Darmo",
        "destination:ref": "1",
        "highway": "motorway_link",
        "motorcycle": "no",
        "note": "Simpang Susun Kota Satelit",
        "oneway": "yes",
        "toll": "yes"
      },
      "geometry": {
        "type": "LineString",
        "coordinates": [
          [
            112.6980603,
            -7.2924808
          ],
          [
            112.6981674,
            -7.2918188
          ],
          [
            112.6981807,
            -7.2916353
          ],
          [
            112.6981655,
            -7.2914289
          ],
          [
            112.6981507,
            -7.2912858
          ],
          [
            112.698069,
            -7.2910032
          ],
          [
            112.6979383,
            -7.2906746
          ],
          [
            112.6978787,
            -7.2904711
          ],
          [
            112.6978565,
            -7.2902984
          ],
          [
            112.6978764,
            -7.2901329
          ],
          [
            112.6979001,
            -7.2900465
          ],
          [
            112.6979471,
            -7.2899666
          ],
          [
            112.698033,
            -7.2898389
          ],
          [
            112.6981296,
            -7.2897587
          ],
          [
            112.6982588,
            -7.2897021
          ],
          [
            112.6983989,
            -7.2896766
          ],
          [
            112.6986033,
            -7.2896851
          ],
          [
            112.6988176,
            -7.2897493
          ],
          [
            112.6991605,
            -7.2899088
          ]
        ]
      },
      "id": "way/28773154"
    },
    {
      "type": "Feature",
      "properties": {
        "@id": "way/28773157",
        "destination": "Kota Satelit;Dukuh Kupang;Darmo",
        "destination:ref": "1",
        "highway": "motorway_link",
        "motorcycle": "no",
        "note": "Simpang Susun Kota Satelit",
        "oneway": "yes",
        "toll": "yes"
      },
      "geometry": {
        "type": "LineString",
        "coordinates": [
          [
            112.7008803,
            -7.28884
          ],
          [
            112.7004389,
            -7.2893249
          ],
          [
            112.7002757,
            -7.2895222
          ],
          [
            112.7002017,
            -7.2896609
          ],
          [
            112.7001626,
            -7.2898046
          ],
          [
            112.7001518,
            -7.2898716
          ],
          [
            112.7001585,
            -7.2900256
          ],
          [
            112.7001895,
            -7.2901459
          ],
          [
            112.7002657,
            -7.2902913
          ],
          [
            112.700362,
            -7.2903944
          ],
          [
            112.7005613,
            -7.2905529
          ],
          [
            112.7006924,
            -7.2905732
          ],
          [
            112.7008463,
            -7.2905729
          ],
          [
            112.7010085,
            -7.2905338
          ],
          [
            112.7012314,
            -7.2904268
          ],
          [
            112.701454,
            -7.290266
          ],
          [
            112.702551,
            -7.2892891
          ],
          [
            112.7028216,
            -7.2890835
          ],
          [
            112.7031088,
            -7.2889474
          ]
        ]
      },
      "id": "way/28773157"
    },
    {
      "type": "Feature",
      "properties": {
        "@id": "way/29099944",
        "bridge": "yes",
        "destination": "Waru;Wonokromo;Taman",
        "destination:ref": "15",
        "highway": "motorway_link",
        "layer": "1",
        "motorcycle": "no",
        "oneway": "yes",
        "toll": "yes"
      },
      "geometry": {
        "type": "LineString",
        "coordinates": [
          [
            112.7110381,
            -7.345082
          ],
          [
            112.7113986,
            -7.3451927
          ]
        ]
      },
      "id": "way/29099944"
    },
    {
      "type": "Feature",
      "properties": {
        "@id": "way/35343237",
        "bridge": "yes",
        "destination": "Banyu Urip;Gresik;Tanjung Perak",
        "destination:ref": "8",
        "highway": "motorway_link",
        "layer": "1",
        "motorcycle": "no",
        "note": "Simpang Susun Kota Satelit",
        "oneway": "yes",
        "toll": "yes"
      },
      "geometry": {
        "type": "LineString",
        "coordinates": [
          [
            112.6995972,
            -7.2902169
          ],
          [
            112.6990903,
            -7.2899765
          ]
        ]
      },
      "id": "way/35343237"
    },
    {
      "type": "Feature",
      "properties": {
        "@id": "way/35343238",
        "bridge": "yes",
        "destination": "Kota Satelit;Dukuh Kupang;Darmo",
        "destination:ref": "1",
        "highway": "motorway_link",
        "layer": "1",
        "motorcycle": "no",
        "note": "Simpang Susun Kota Satelit",
        "oneway": "yes",
        "toll": "yes"
      },
      "geometry": {
        "type": "LineString",
        "coordinates": [
          [
            112.6991605,
            -7.2899088
          ],
          [
            112.6996669,
            -7.2901643
          ]
        ]
      },
      "id": "way/35343238"
    },
    {
      "type": "Feature",
      "properties": {
        "@id": "way/35603364",
        "destination": "Gunung Sari;Kota Satelit;Gresik",
        "destination:ref": "8",
        "highway": "motorway_link",
        "motorcycle": "no",
        "oneway": "yes",
        "toll": "yes"
      },
      "geometry": {
        "type": "LineString",
        "coordinates": [
          [
            112.7110038,
            -7.3451757
          ],
          [
            112.7107806,
            -7.3451076
          ],
          [
            112.7106089,
            -7.3450735
          ],
          [
            112.7104373,
            -7.3450565
          ],
          [
            112.7102828,
            -7.3450905
          ],
          [
            112.7101283,
            -7.3451586
          ],
          [
            112.7100081,
            -7.3452608
          ],
          [
            112.7099395,
            -7.345397
          ],
          [
            112.7099309,
            -7.3455417
          ],
          [
            112.7099566,
            -7.3456864
          ],
          [
            112.7100253,
            -7.3458226
          ],
          [
            112.7101455,
            -7.3459248
          ],
          [
            112.7102656,
            -7.3459929
          ],
          [
            112.7103921,
            -7.3460081
          ],
          [
            112.7105542,
            -7.3459688
          ],
          [
            112.7107025,
            -7.3458728
          ],
          [
            112.7108077,
            -7.3457393
          ],
          [
            112.7108987,
            -7.3455616
          ],
          [
            112.7110241,
            -7.3452551
          ],
          [
            112.7112088,
            -7.344829
          ]
        ]
      },
      "id": "way/35603364"
    },
    {
      "type": "Feature",
      "properties": {
        "@id": "way/35603365",
        "bridge": "yes",
        "destination": "Gunung Sari;Kota Satelit;Gresik",
        "destination:ref": "8",
        "highway": "motorway_link",
        "layer": "1",
        "motorcycle": "no",
        "oneway": "yes",
        "toll": "yes"
      },
      "geometry": {
        "type": "LineString",
        "coordinates": [
          [
            112.7113814,
            -7.3452863
          ],
          [
            112.7110038,
            -7.3451757
          ]
        ]
      },
      "id": "way/35603365"
    },
    {
      "type": "Feature",
      "properties": {
        "@id": "way/36001503",
        "destination": "Gunung Sari;Wonokromo;Karang Pilang",
        "destination:ref": "1",
        "highway": "motorway_link",
        "motorcycle": "no",
        "oneway": "yes",
        "toll": "yes"
      },
      "geometry": {
        "type": "LineString",
        "coordinates": [
          [
            112.7055723,
            -7.3078992
          ],
          [
            112.7061883,
            -7.3080359
          ],
          [
            112.7065001,
            -7.3080502
          ],
          [
            112.7066915,
            -7.3080311
          ],
          [
            112.7069107,
            -7.3079183
          ],
          [
            112.7072917,
            -7.3076526
          ]
        ]
      },
      "id": "way/36001503"
    },
    {
      "type": "Feature",
      "properties": {
        "@id": "way/36001510",
        "destination": "Jambangan;Waru;Malang",
        "destination:ref": "8",
        "highway": "motorway_link",
        "motorcycle": "no",
        "oneway": "yes",
        "toll": "yes"
      },
      "geometry": {
        "type": "LineString",
        "coordinates": [
          [
            112.7073798,
            -7.3077304
          ],
          [
            112.707338,
            -7.3077852
          ],
          [
            112.7073158,
            -7.3078798
          ],
          [
            112.7073133,
            -7.3079848
          ],
          [
            112.7073356,
            -7.308039
          ],
          [
            112.7074128,
            -7.3081752
          ],
          [
            112.7075416,
            -7.3083029
          ],
          [
            112.7078133,
            -7.3084541
          ],
          [
            112.7079387,
            -7.3085096
          ]
        ]
      },
      "id": "way/36001510"
    },
    {
      "type": "Feature",
      "properties": {
        "@id": "way/36004031",
        "highway": "motorway_link",
        "oneway": "yes",
        "surface": "asphalt",
        "toll": "yes"
      },
      "geometry": {
        "type": "LineString",
        "coordinates": [
          [
            112.692938,
            -7.4242526
          ],
          [
            112.6929896,
            -7.4245272
          ],
          [
            112.692991,
            -7.4246143
          ],
          [
            112.6929883,
            -7.424716
          ],
          [
            112.6929903,
            -7.4247958
          ],
          [
            112.6929903,
            -7.4248543
          ],
          [
            112.6929916,
            -7.4249075
          ],
          [
            112.692995,
            -7.4249747
          ],
          [
            112.6930017,
            -7.4250252
          ],
          [
            112.6930077,
            -7.4250664
          ],
          [
            112.6930178,
            -7.4251316
          ]
        ]
      },
      "id": "way/36004031"
    },
    {
      "type": "Feature",
      "properties": {
        "@id": "way/36004033",
        "destination:ref": "8",
        "highway": "motorway_link",
        "oneway": "yes",
        "surface": "asphalt",
        "toll": "yes"
      },
      "geometry": {
        "type": "LineString",
        "coordinates": [
          [
            112.6931378,
            -7.4271869
          ],
          [
            112.6931301,
            -7.4272851
          ],
          [
            112.6931184,
            -7.4274349
          ],
          [
            112.6931123,
            -7.4275207
          ],
          [
            112.6931097,
            -7.4276138
          ],
          [
            112.693107,
            -7.4277222
          ],
          [
            112.6931027,
            -7.4278014
          ],
          [
            112.693111,
            -7.4280267
          ],
          [
            112.6930828,
            -7.4281291
          ]
        ]
      },
      "id": "way/36004033"
    },
    {
      "type": "Feature",
      "properties": {
        "@id": "way/36004048",
        "destination": "Sidoarjo;Krian",
        "destination:ref": "1",
        "highway": "motorway_link",
        "oneway": "yes",
        "toll": "yes"
      },
      "geometry": {
        "type": "LineString",
        "coordinates": [
          [
            112.6970548,
            -7.440446
          ],
          [
            112.6971189,
            -7.4406275
          ],
          [
            112.6971527,
            -7.4407427
          ],
          [
            112.6971766,
            -7.4408515
          ],
          [
            112.6973368,
            -7.441696
          ],
          [
            112.6975594,
            -7.4427763
          ],
          [
            112.6976882,
            -7.4431423
          ],
          [
            112.6978502,
            -7.4433503
          ],
          [
            112.6981517,
            -7.4436359
          ],
          [
            112.6984263,
            -7.4438912
          ],
          [
            112.6986323,
            -7.444138
          ],
          [
            112.6987782,
            -7.4444359
          ],
          [
            112.6989327,
            -7.4448955
          ],
          [
            112.6992276,
            -7.4455551
          ]
        ]
      },
      "id": "way/36004048"
    },
    {
      "type": "Feature",
      "properties": {
        "@id": "way/36005505",
        "destination": "Sidoarjo;Krian",
        "destination:ref": "1",
        "highway": "motorway_link",
        "oneway": "yes",
        "toll": "yes"
      },
      "geometry": {
        "type": "LineString",
        "coordinates": [
          [
            112.6972117,
            -7.446449
          ],
          [
            112.6971853,
            -7.4458197
          ],
          [
            112.6971805,
            -7.4457563
          ],
          [
            112.6971733,
            -7.4457015
          ],
          [
            112.6971645,
            -7.4456569
          ],
          [
            112.6971478,
            -7.4456005
          ],
          [
            112.6971236,
            -7.44555
          ],
          [
            112.6970906,
            -7.4454925
          ],
          [
            112.6970517,
            -7.4454396
          ],
          [
            112.6970096,
            -7.4453857
          ],
          [
            112.6969499,
            -7.4453251
          ],
          [
            112.6968864,
            -7.4452699
          ],
          [
            112.6968068,
            -7.4452081
          ],
          [
            112.6963796,
            -7.4449066
          ],
          [
            112.6963028,
            -7.4448463
          ],
          [
            112.6962159,
            -7.444771
          ],
          [
            112.696162,
            -7.4447173
          ],
          [
            112.6961109,
            -7.4446573
          ],
          [
            112.6960735,
            -7.4446056
          ],
          [
            112.6960365,
            -7.4445449
          ],
          [
            112.6960051,
            -7.4444806
          ],
          [
            112.695984,
            -7.4444258
          ],
          [
            112.6959676,
            -7.4443769
          ],
          [
            112.6959585,
            -7.4443303
          ],
          [
            112.6959528,
            -7.4442718
          ],
          [
            112.6959522,
            -7.4442158
          ],
          [
            112.6959555,
            -7.4441575
          ],
          [
            112.6959667,
            -7.4440854
          ],
          [
            112.6959823,
            -7.4440298
          ],
          [
            112.6960127,
            -7.4439529
          ],
          [
            112.6960499,
            -7.4438856
          ],
          [
            112.6960842,
            -7.4438383
          ],
          [
            112.696136,
            -7.4437814
          ],
          [
            112.6961875,
            -7.4437319
          ],
          [
            112.6962482,
            -7.4436861
          ],
          [
            112.6962921,
            -7.4436615
          ],
          [
            112.6963525,
            -7.4436335
          ],
          [
            112.6964301,
            -7.4436063
          ],
          [
            112.6964946,
            -7.443587
          ],
          [
            112.6965652,
            -7.4435726
          ],
          [
            112.6966381,
            -7.4435631
          ],
          [
            112.6967186,
            -7.4435591
          ],
          [
            112.6968042,
            -7.4435569
          ],
          [
            112.696957,
            -7.4435642
          ]
        ]
      },
      "id": "way/36005505"
    },
    {
      "type": "Feature",
      "properties": {
        "@id": "way/36005506",
        "bridge": "yes",
        "destination": "Sidoarjo;Krian",
        "destination:ref": "1",
        "highway": "motorway_link",
        "layer": "1",
        "oneway": "yes",
        "toll": "yes"
      },
      "geometry": {
        "type": "LineString",
        "coordinates": [
          [
            112.696957,
            -7.4435642
          ],
          [
            112.6976476,
            -7.4436945
          ]
        ]
      },
      "id": "way/36005506"
    },
    {
      "type": "Feature",
      "properties": {
        "@id": "way/36005512",
        "bridge": "yes",
        "destination:ref": "8",
        "highway": "motorway_link",
        "layer": "1",
        "oneway": "yes",
        "toll": "yes"
      },
      "geometry": {
        "type": "LineString",
        "coordinates": [
          [
            112.6976583,
            -7.4438059
          ],
          [
            112.6969357,
            -7.4436684
          ]
        ]
      },
      "id": "way/36005512"
    },
    {
      "type": "Feature",
      "properties": {
        "@id": "way/36005513",
        "destination:ref": "8",
        "highway": "motorway_link",
        "oneway": "yes",
        "toll": "yes"
      },
      "geometry": {
        "type": "LineString",
        "coordinates": [
          [
            112.6969357,
            -7.4436684
          ],
          [
            112.6967683,
            -7.4436526
          ],
          [
            112.6966797,
            -7.4436508
          ],
          [
            112.6966038,
            -7.4436581
          ],
          [
            112.696532,
            -7.4436683
          ],
          [
            112.6964613,
            -7.4436871
          ],
          [
            112.69639,
            -7.4437133
          ],
          [
            112.6963273,
            -7.4437448
          ],
          [
            112.6962679,
            -7.4437863
          ],
          [
            112.6962114,
            -7.4438321
          ],
          [
            112.6961647,
            -7.4438796
          ],
          [
            112.6961245,
            -7.4439367
          ],
          [
            112.6961001,
            -7.4439837
          ],
          [
            112.6960722,
            -7.4440524
          ],
          [
            112.696054,
            -7.4441209
          ],
          [
            112.696044,
            -7.4441814
          ],
          [
            112.6960427,
            -7.4442399
          ],
          [
            112.6960467,
            -7.4442931
          ],
          [
            112.6960594,
            -7.4443515
          ],
          [
            112.6960736,
            -7.4444004
          ],
          [
            112.6960963,
            -7.4444567
          ],
          [
            112.6961245,
            -7.4445139
          ],
          [
            112.696165,
            -7.4445784
          ],
          [
            112.6962049,
            -7.4446269
          ],
          [
            112.6962522,
            -7.4446703
          ],
          [
            112.6963028,
            -7.4447067
          ],
          [
            112.6963592,
            -7.4447359
          ],
          [
            112.6964128,
            -7.4447559
          ],
          [
            112.6964702,
            -7.4447704
          ],
          [
            112.6965348,
            -7.4447798
          ],
          [
            112.6966099,
            -7.4447856
          ],
          [
            112.6966824,
            -7.4447838
          ],
          [
            112.6967441,
            -7.4447785
          ],
          [
            112.6968033,
            -7.4447617
          ],
          [
            112.6968487,
            -7.4447399
          ],
          [
            112.6968869,
            -7.4447174
          ],
          [
            112.6969197,
            -7.4446921
          ],
          [
            112.6969653,
            -7.4446482
          ],
          [
            112.6970083,
            -7.4446043
          ],
          [
            112.6970447,
            -7.4445555
          ],
          [
            112.6970793,
            -7.4445032
          ],
          [
            112.6971077,
            -7.4444499
          ],
          [
            112.697137,
            -7.4443796
          ],
          [
            112.6971571,
            -7.4443157
          ],
          [
            112.6971706,
            -7.4442593
          ],
          [
            112.6971908,
            -7.4441353
          ],
          [
            112.6972094,
            -7.443954
          ],
          [
            112.6972338,
            -7.4432598
          ]
        ]
      },
      "id": "way/36005513"
    },
    {
      "type": "Feature",
      "properties": {
        "@id": "way/36015896",
        "destination": "Gunung Sari;Wonokromo;Karang Pilang",
        "destination:ref": "JI-150-12K",
        "highway": "motorway_link",
        "lanes": "1",
        "maxspeed": "40",
        "motorcycle": "no",
        "oneway": "yes",
        "surface": "asphalt",
        "toll": "yes"
      },
      "geometry": {
        "type": "LineString",
        "coordinates": [
          [
            112.707985,
            -7.3086564
          ],
          [
            112.707436,
            -7.3085885
          ],
          [
            112.7071482,
            -7.3085824
          ],
          [
            112.7069728,
            -7.3086231
          ],
          [
            112.7068116,
            -7.3086997
          ],
          [
            112.7067019,
            -7.3088037
          ],
          [
            112.7066453,
            -7.3089149
          ],
          [
            112.7066295,
            -7.3090368
          ],
          [
            112.7066381,
            -7.3091336
          ],
          [
            112.706673,
            -7.3092509
          ]
        ]
      },
      "id": "way/36015896"
    },
    {
      "type": "Feature",
      "properties": {
        "@id": "way/36015908",
        "destination": "Kota Satelit;Tj. Perak;Gresik",
        "destination:ref": "8",
        "highway": "motorway_link",
        "motorcycle": "no",
        "oneway": "yes",
        "toll": "yes"
      },
      "geometry": {
        "type": "LineString",
        "coordinates": [
          [
            112.7066138,
            -7.3093219
          ],
          [
            112.7065757,
            -7.3092378
          ],
          [
            112.7065623,
            -7.3091654
          ],
          [
            112.7065422,
            -7.3090257
          ],
          [
            112.7065079,
            -7.3088129
          ],
          [
            112.7064416,
            -7.3086439
          ],
          [
            112.7063469,
            -7.3084894
          ],
          [
            112.706223,
            -7.3083487
          ],
          [
            112.706021,
            -7.3082268
          ],
          [
            112.7053191,
            -7.3079845
          ]
        ]
      },
      "id": "way/36015908"
    },
    {
      "type": "Feature",
      "properties": {
        "@id": "way/36978150",
        "destination": "Banyu Urip;Pasar Kembang;Tandes",
        "destination:ref": "1",
        "highway": "motorway_link",
        "motorcycle": "no",
        "name": "Banyu Urip",
        "oneway": "yes",
        "toll": "yes"
      },
      "geometry": {
        "type": "LineString",
        "coordinates": [
          [
            112.7094521,
            -7.2574578
          ],
          [
            112.7094882,
            -7.2575711
          ],
          [
            112.7095186,
            -7.2576817
          ],
          [
            112.7095671,
            -7.2579203
          ],
          [
            112.7096066,
            -7.2580166
          ],
          [
            112.7096451,
            -7.2580906
          ],
          [
            112.7096924,
            -7.2581576
          ],
          [
            112.7097534,
            -7.2582237
          ],
          [
            112.7099003,
            -7.2583639
          ],
          [
            112.7100742,
            -7.2584959
          ],
          [
            112.7103907,
            -7.2587404
          ],
          [
            112.7104743,
            -7.2588295
          ],
          [
            112.7105495,
            -7.258941
          ],
          [
            112.7106103,
            -7.2590701
          ],
          [
            112.7106313,
            -7.2592181
          ],
          [
            112.7106153,
            -7.2593604
          ],
          [
            112.7105791,
            -7.2594581
          ],
          [
            112.7104958,
            -7.2595774
          ],
          [
            112.7103813,
            -7.2596838
          ],
          [
            112.710235,
            -7.259775
          ],
          [
            112.7100825,
            -7.2598408
          ],
          [
            112.7098446,
            -7.2599072
          ]
        ]
      },
      "id": "way/36978150"
    },
    {
      "type": "Feature",
      "properties": {
        "@id": "way/36978151",
        "bridge": "yes",
        "destination": "Banyu Urip;Pasar Kembang;Tandes",
        "destination:ref": "1",
        "highway": "motorway_link",
        "layer": "1",
        "motorcycle": "no",
        "name": "Banyu Urip",
        "oneway": "yes",
        "toll": "yes"
      },
      "geometry": {
        "type": "LineString",
        "coordinates": [
          [
            112.7098446,
            -7.2599072
          ],
          [
            112.7091484,
            -7.2600657
          ]
        ]
      },
      "id": "way/36978151"
    },
    {
      "type": "Feature",
      "properties": {
        "@id": "way/36978154",
        "bridge": "yes",
        "destination": "Kota Satelit;Gunung Sari;Malang",
        "destination:ref": "8",
        "highway": "motorway_link",
        "layer": "1",
        "motorcycle": "no",
        "name": "Banyu Urip",
        "oneway": "yes",
        "toll": "yes"
      },
      "geometry": {
        "type": "LineString",
        "coordinates": [
          [
            112.7091274,
            -7.2600021
          ],
          [
            112.7098127,
            -7.2598404
          ]
        ]
      },
      "id": "way/36978154"
    },
    {
      "type": "Feature",
      "properties": {
        "@id": "way/36978155",
        "destination": "Kota Satelit;Gunung Sari;Malang",
        "destination:ref": "8",
        "highway": "motorway_link",
        "motorcycle": "no",
        "name": "Banyu Urip",
        "oneway": "yes",
        "toll": "yes"
      },
      "geometry": {
        "type": "LineString",
        "coordinates": [
          [
            112.7098127,
            -7.2598404
          ],
          [
            112.7100365,
            -7.2597829
          ],
          [
            112.7101756,
            -7.259729
          ],
          [
            112.7103459,
            -7.2596342
          ],
          [
            112.710461,
            -7.2595077
          ],
          [
            112.7105197,
            -7.2594013
          ],
          [
            112.7105458,
            -7.2593201
          ],
          [
            112.7105509,
            -7.2592454
          ],
          [
            112.7105462,
            -7.2591642
          ],
          [
            112.7105299,
            -7.2590837
          ],
          [
            112.7104944,
            -7.2590054
          ],
          [
            112.710448,
            -7.2589364
          ],
          [
            112.7103737,
            -7.2588694
          ],
          [
            112.7103167,
            -7.2588235
          ],
          [
            112.7102376,
            -7.2587927
          ],
          [
            112.7101379,
            -7.2587693
          ],
          [
            112.7100666,
            -7.2587715
          ],
          [
            112.7099811,
            -7.2587762
          ],
          [
            112.7099203,
            -7.258797
          ],
          [
            112.7098467,
            -7.2588283
          ],
          [
            112.7097891,
            -7.2588692
          ],
          [
            112.7097457,
            -7.2589091
          ],
          [
            112.7096975,
            -7.2589669
          ],
          [
            112.7096595,
            -7.2590219
          ],
          [
            112.7096229,
            -7.2590916
          ],
          [
            112.7095863,
            -7.2592296
          ],
          [
            112.7095646,
            -7.2593108
          ],
          [
            112.7095497,
            -7.2594154
          ],
          [
            112.709545,
            -7.2594523
          ],
          [
            112.7095356,
            -7.2595146
          ],
          [
            112.70952,
            -7.259598
          ],
          [
            112.7094737,
            -7.2597617
          ]
        ]
      },
      "id": "way/36978155"
    },
    {
      "type": "Feature",
      "properties": {
        "@id": "way/68188865",
        "destination": "Malang;Pasuruan",
        "destination:ref": "8",
        "highway": "motorway_link",
        "oneway": "yes",
        "toll": "yes"
      },
      "geometry": {
        "type": "LineString",
        "coordinates": [
          [
            112.6996715,
            -7.4466655
          ],
          [
            112.6995148,
            -7.4465352
          ],
          [
            112.6993404,
            -7.4463836
          ],
          [
            112.6992336,
            -7.4462342
          ],
          [
            112.6991271,
            -7.4460395
          ],
          [
            112.6990963,
            -7.4459899
          ],
          [
            112.6989672,
            -7.4456845
          ],
          [
            112.698898,
            -7.4455224
          ],
          [
            112.6987625,
            -7.4452019
          ],
          [
            112.6986994,
            -7.4450641
          ],
          [
            112.6986524,
            -7.444982
          ],
          [
            112.6986203,
            -7.4449341
          ],
          [
            112.6985802,
            -7.4448899
          ],
          [
            112.6985438,
            -7.4448556
          ],
          [
            112.6985044,
            -7.444826
          ],
          [
            112.6984473,
            -7.4447905
          ],
          [
            112.6983923,
            -7.444762
          ],
          [
            112.6983413,
            -7.4447386
          ],
          [
            112.6982821,
            -7.4447222
          ],
          [
            112.6982245,
            -7.444713
          ],
          [
            112.6981611,
            -7.4447107
          ],
          [
            112.6980936,
            -7.4447166
          ],
          [
            112.6980409,
            -7.444728
          ],
          [
            112.6979694,
            -7.4447515
          ],
          [
            112.6979068,
            -7.4447785
          ],
          [
            112.6978451,
            -7.4448143
          ],
          [
            112.6977901,
            -7.4448503
          ],
          [
            112.6977432,
            -7.4448902
          ],
          [
            112.6976942,
            -7.4449399
          ],
          [
            112.6976547,
            -7.4449873
          ],
          [
            112.6976225,
            -7.4450365
          ],
          [
            112.697585,
            -7.4451031
          ],
          [
            112.6975619,
            -7.4451513
          ],
          [
            112.6975434,
            -7.4451987
          ],
          [
            112.6975221,
            -7.4452701
          ],
          [
            112.6974964,
            -7.4453543
          ],
          [
            112.6974715,
            -7.4454478
          ],
          [
            112.6973799,
            -7.4457857
          ]
        ]
      },
      "id": "way/68188865"
    },
    {
      "type": "Feature",
      "properties": {
        "@id": "way/166646207",
        "destination": "Banyu Urip;Pasar Kembang;Tandes",
        "highway": "motorway_link",
        "motorcycle": "no",
        "name": "Banyu Urip",
        "oneway": "yes",
        "toll": "yes"
      },
      "geometry": {
        "type": "LineString",
        "coordinates": [
          [
            112.7093276,
            -7.2608135
          ],
          [
            112.709272,
            -7.2607336
          ],
          [
            112.7092355,
            -7.2606506
          ],
          [
            112.7091936,
            -7.2605533
          ],
          [
            112.7090826,
            -7.2604065
          ],
          [
            112.7089354,
            -7.2603093
          ],
          [
            112.7088275,
            -7.2602698
          ],
          [
            112.708704,
            -7.2602561
          ],
          [
            112.7085971,
            -7.2602594
          ],
          [
            112.7085344,
            -7.26025
          ]
        ]
      },
      "id": "way/166646207"
    },
    {
      "type": "Feature",
      "properties": {
        "@id": "way/256684609",
        "destination": "Sidoarjo;Malang;Pasuruan",
        "destination:ref": "8",
        "highway": "motorway_link",
        "motorcycle": "no",
        "oneway": "yes",
        "toll": "yes"
      },
      "geometry": {
        "type": "LineString",
        "coordinates": [
          [
            112.7144126,
            -7.3461644
          ],
          [
            112.7140711,
            -7.3461469
          ],
          [
            112.7138519,
            -7.3461283
          ],
          [
            112.7136735,
            -7.3461043
          ],
          [
            112.7134502,
            -7.3460684
          ],
          [
            112.7132799,
            -7.3460352
          ],
          [
            112.7130693,
            -7.3459806
          ],
          [
            112.7129392,
            -7.345934
          ],
          [
            112.7117757,
            -7.3455889
          ],
          [
            112.7115964,
            -7.3455616
          ],
          [
            112.7114365,
            -7.3455752
          ],
          [
            112.7112958,
            -7.3456299
          ],
          [
            112.7112159,
            -7.3457065
          ],
          [
            112.7111221,
            -7.345846
          ],
          [
            112.710962,
            -7.3461553
          ]
        ]
      },
      "id": "way/256684609"
    },
    {
      "type": "Feature",
      "properties": {
        "@id": "way/309365336",
        "bridge": "viaduct",
        "destination": "Gemboi;Jabon",
        "destination:ref": "17",
        "highway": "motorway_link",
        "lanes": "2",
        "layer": "1",
        "maxspeed": "40",
        "oneway": "yes",
        "toll": "yes"
      },
      "geometry": {
        "type": "LineString",
        "coordinates": [
          [
            112.707578,
            -7.5566678
          ],
          [
            112.7079644,
            -7.5566084
          ],
          [
            112.7082903,
            -7.5565526
          ],
          [
            112.7097052,
            -7.5563103
          ],
          [
            112.7099488,
            -7.5562749
          ]
        ]
      },
      "id": "way/309365336"
    },
    {
      "type": "Feature",
      "properties": {
        "@id": "way/310735947",
        "destination:ref": "8",
        "highway": "motorway_link",
        "oneway": "yes",
        "surface": "asphalt",
        "toll": "yes"
      },
      "geometry": {
        "type": "LineString",
        "coordinates": [
          [
            112.6942522,
            -7.4174208
          ],
          [
            112.6943046,
            -7.4174184
          ],
          [
            112.6943311,
            -7.4174132
          ],
          [
            112.6943599,
            -7.4174011
          ],
          [
            112.6943938,
            -7.4173751
          ],
          [
            112.694438,
            -7.4173186
          ],
          [
            112.6944716,
            -7.4172421
          ],
          [
            112.6944957,
            -7.4171737
          ],
          [
            112.6945684,
            -7.4169231
          ],
          [
            112.6947317,
            -7.4163846
          ]
        ]
      },
      "id": "way/310735947"
    },
    {
      "type": "Feature",
      "properties": {
        "@id": "way/310735952",
        "destination": "Tempat Istirahat dan Pelayanan",
        "highway": "motorway_link",
        "oneway": "yes",
        "surface": "asphalt",
        "toll": "yes"
      },
      "geometry": {
        "type": "LineString",
        "coordinates": [
          [
            112.6935225,
            -7.4209904
          ],
          [
            112.6935073,
            -7.4209066
          ],
          [
            112.6935113,
            -7.4208215
          ],
          [
            112.6935177,
            -7.4207733
          ],
          [
            112.693623,
            -7.4203807
          ],
          [
            112.6936448,
            -7.4202791
          ],
          [
            112.693744,
            -7.4198414
          ],
          [
            112.6937675,
            -7.4196918
          ],
          [
            112.6937816,
            -7.4195754
          ],
          [
            112.6937856,
            -7.4194776
          ],
          [
            112.6937614,
            -7.4193899
          ],
          [
            112.6937205,
            -7.4193094
          ],
          [
            112.6937031,
            -7.4192745
          ],
          [
            112.6936541,
            -7.4191864
          ],
          [
            112.6935089,
            -7.4189769
          ]
        ]
      },
      "id": "way/310735952"
    },
    {
      "type": "Feature",
      "properties": {
        "@id": "way/310948634",
        "destination": "Sidoarjo;Pasuruan;Malang",
        "destination:ref": "8",
        "highway": "motorway_link",
        "motorcycle": "no",
        "oneway": "yes",
        "toll": "yes"
      },
      "geometry": {
        "type": "LineString",
        "coordinates": [
          [
            112.7118205,
            -7.3437938
          ],
          [
            112.7121085,
            -7.3438496
          ],
          [
            112.7123163,
            -7.3438757
          ],
          [
            112.71251,
            -7.3438378
          ],
          [
            112.7126529,
            -7.3437547
          ],
          [
            112.7127508,
            -7.3436097
          ],
          [
            112.7127991,
            -7.3434736
          ],
          [
            112.712789,
            -7.3433007
          ],
          [
            112.7127292,
            -7.3431611
          ],
          [
            112.7126068,
            -7.3430554
          ],
          [
            112.7124673,
            -7.3430057
          ],
          [
            112.7123065,
            -7.34299
          ],
          [
            112.7121557,
            -7.3430444
          ],
          [
            112.7120111,
            -7.3431552
          ],
          [
            112.7119118,
            -7.3432768
          ],
          [
            112.7117902,
            -7.3434874
          ],
          [
            112.7116261,
            -7.3438618
          ]
        ]
      },
      "id": "way/310948634"
    },
    {
      "type": "Feature",
      "properties": {
        "@id": "way/310948649",
        "bridge": "yes",
        "destination": "Sidoarjo;Pasuruan;Malang",
        "destination:ref": "8",
        "highway": "motorway_link",
        "layer": "1",
        "motorcycle": "no",
        "oneway": "yes",
        "toll": "yes"
      },
      "geometry": {
        "type": "LineString",
        "coordinates": [
          [
            112.7110308,
            -7.3436103
          ],
          [
            112.7118205,
            -7.3437938
          ]
        ]
      },
      "id": "way/310948649"
    },
    {
      "type": "Feature",
      "properties": {
        "@id": "way/310948655",
        "bridge": "yes",
        "destination": "Gunung Sari;Kota Satelit;Gresik",
        "destination:ref": "8",
        "highway": "motorway_link",
        "layer": "1",
        "motorcycle": "no",
        "oneway": "yes",
        "toll": "yes"
      },
      "geometry": {
        "type": "LineString",
        "coordinates": [
          [
            112.7118824,
            -7.3445598
          ],
          [
            112.7107755,
            -7.3443182
          ]
        ]
      },
      "id": "way/310948655"
    },
    {
      "type": "Feature",
      "properties": {
        "@id": "way/310948682",
        "destination": "Gunung Sari;Kota Satelit;Gresik",
        "destination:ref": "8",
        "highway": "motorway_link",
        "motorcycle": "no",
        "oneway": "yes",
        "toll": "yes"
      },
      "geometry": {
        "type": "LineString",
        "coordinates": [
          [
            112.7107755,
            -7.3443182
          ],
          [
            112.7097662,
            -7.3440912
          ],
          [
            112.7096069,
            -7.3441065
          ],
          [
            112.7095228,
            -7.3441444
          ],
          [
            112.7094262,
            -7.3442029
          ],
          [
            112.7093303,
            -7.3443353
          ],
          [
            112.7093055,
            -7.3444045
          ],
          [
            112.709282,
            -7.3445242
          ],
          [
            112.7092961,
            -7.3446252
          ],
          [
            112.7093256,
            -7.3447177
          ],
          [
            112.7093565,
            -7.3447756
          ],
          [
            112.7094081,
            -7.3448295
          ],
          [
            112.7095363,
            -7.3449168
          ],
          [
            112.7096173,
            -7.3449438
          ],
          [
            112.7097266,
            -7.3449485
          ],
          [
            112.709907,
            -7.3449245
          ],
          [
            112.7100196,
            -7.3448966
          ],
          [
            112.710251,
            -7.3448327
          ],
          [
            112.7104971,
            -7.3447489
          ],
          [
            112.7106899,
            -7.3446556
          ],
          [
            112.7108426,
            -7.3445398
          ],
          [
            112.7109377,
            -7.3444287
          ],
          [
            112.7110174,
            -7.3442982
          ],
          [
            112.7110474,
            -7.3442292
          ],
          [
            112.7110676,
            -7.3441709
          ],
          [
            112.7110952,
            -7.3440663
          ],
          [
            112.7111237,
            -7.3439498
          ],
          [
            112.7111694,
            -7.3437731
          ],
          [
            112.7112755,
            -7.3434363
          ],
          [
            112.7113154,
            -7.3433523
          ],
          [
            112.7113688,
            -7.3432783
          ],
          [
            112.7115194,
            -7.3430987
          ],
          [
            112.7115734,
            -7.3430194
          ],
          [
            112.7116158,
            -7.3429428
          ],
          [
            112.7119875,
            -7.3421063
          ],
          [
            112.7121497,
            -7.3417969
          ],
          [
            112.7121961,
            -7.3417181
          ],
          [
            112.7122578,
            -7.3416352
          ]
        ]
      },
      "id": "way/310948682"
    },
    {
      "type": "Feature",
      "properties": {
        "@id": "way/311075643",
        "destination": "Pandaan;Pasuruan;Malang",
        "destination:ref": "8",
        "highway": "motorway_link",
        "oneway": "yes",
        "toll": "yes"
      },
      "geometry": {
        "type": "LineString",
        "coordinates": [
          [
            112.6906954,
            -7.5517511
          ],
          [
            112.691626,
            -7.5521239
          ],
          [
            112.692347,
            -7.5524206
          ],
          [
            112.692626,
            -7.5525695
          ],
          [
            112.6928804,
            -7.5527407
          ]
        ]
      },
      "id": "way/311075643"
    },
    {
      "type": "Feature",
      "properties": {
        "@id": "way/311075646",
        "destination": "Tanggulanging;Porong;Krembung",
        "destination:ref": "1",
        "highway": "motorway_link",
        "oneway": "yes",
        "toll": "yes"
      },
      "geometry": {
        "type": "LineString",
        "coordinates": [
          [
            112.6929216,
            -7.5529613
          ],
          [
            112.6922942,
            -7.5528256
          ],
          [
            112.6917427,
            -7.552657
          ],
          [
            112.690508,
            -7.5522115
          ]
        ]
      },
      "id": "way/311075646"
    },
    {
      "type": "Feature",
      "properties": {
        "@id": "way/416326363",
        "bridge": "viaduct",
        "destination:ref": "8",
        "highway": "motorway_link",
        "lanes": "2",
        "layer": "1",
        "maxspeed": "40",
        "oneway": "yes",
        "toll": "yes"
      },
      "geometry": {
        "type": "LineString",
        "coordinates": [
          [
            112.7100186,
            -7.5566913
          ],
          [
            112.7098895,
            -7.5566988
          ],
          [
            112.7086965,
            -7.5567839
          ],
          [
            112.7081069,
            -7.5568393
          ],
          [
            112.7074734,
            -7.5568906
          ],
          [
            112.7067778,
            -7.5569276
          ]
        ]
      },
      "id": "way/416326363"
    },
    {
      "type": "Feature",
      "properties": {
        "@id": "way/695733976",
        "destination": "Tanggulangin;Porong;Sidoarjo",
        "destination:ref": "1",
        "highway": "motorway_link",
        "lanes": "1",
        "maxspeed": "40",
        "oneway": "yes",
        "surface": "asphalt",
        "toll": "yes",
        "width": "5"
      },
      "geometry": {
        "type": "LineString",
        "coordinates": [
          [
            112.6976262,
            -7.5023635
          ],
          [
            112.6979363,
            -7.5027572
          ],
          [
            112.6984265,
            -7.503438
          ],
          [
            112.6986001,
            -7.5037391
          ]
        ]
      },
      "id": "way/695733976"
    },
    {
      "type": "Feature",
      "properties": {
        "@id": "way/695733977",
        "destination:ref": "8",
        "highway": "motorway_link",
        "lanes": "2",
        "oneway": "yes",
        "operator": "PT Jasa Marga (Persero)",
        "toll": "yes"
      },
      "geometry": {
        "type": "LineString",
        "coordinates": [
          [
            112.6993524,
            -7.5087192
          ],
          [
            112.6993659,
            -7.5085138
          ],
          [
            112.6993753,
            -7.5083123
          ],
          [
            112.6993706,
            -7.5080637
          ],
          [
            112.6993525,
            -7.5077001
          ],
          [
            112.6993326,
            -7.5073894
          ],
          [
            112.6992868,
            -7.5068877
          ],
          [
            112.6992586,
            -7.5067082
          ],
          [
            112.6992198,
            -7.5064253
          ],
          [
            112.6991412,
            -7.5060344
          ],
          [
            112.6990447,
            -7.5056857
          ],
          [
            112.6988929,
            -7.5051884
          ],
          [
            112.6987464,
            -7.5048068
          ],
          [
            112.6985944,
            -7.5044732
          ],
          [
            112.6985485,
            -7.5043549
          ],
          [
            112.6985478,
            -7.5042084
          ]
        ]
      },
      "id": "way/695733977"
    },
    {
      "type": "Feature",
      "properties": {
        "@id": "way/778061172",
        "destination": "Jambangan;Menanggal",
        "destination:ref": "1",
        "highway": "motorway_link",
        "motorcycle": "no",
        "oneway": "yes",
        "toll": "yes"
      },
      "geometry": {
        "type": "LineString",
        "coordinates": [
          [
            112.7149831,
            -7.3291101
          ],
          [
            112.7150072,
            -7.3291885
          ],
          [
            112.7150153,
            -7.3292311
          ],
          [
            112.7150167,
            -7.3292744
          ],
          [
            112.7148436,
            -7.3304475
          ],
          [
            112.7147591,
            -7.3310434
          ],
          [
            112.7146035,
            -7.3320756
          ],
          [
            112.7145101,
            -7.332718
          ]
        ]
      },
      "id": "way/778061172"
    },
    {
      "type": "Feature",
      "properties": {
        "@id": "way/782018139",
        "highway": "motorway_link",
        "oneway": "yes"
      },
      "geometry": {
        "type": "LineString",
        "coordinates": [
          [
            112.6960499,
            -7.4527926
          ],
          [
            112.6960443,
            -7.4525989
          ],
          [
            112.6960474,
            -7.4525114
          ],
          [
            112.6961012,
            -7.4523101
          ]
        ]
      },
      "id": "way/782018139"
    },
    {
      "type": "Feature",
      "properties": {
        "@id": "way/804453702",
        "destination": "Pasar Turi;Gresik",
        "destination:ref": "AH2;8",
        "highway": "motorway_link",
        "motorcycle": "no",
        "name": "Simpang Susun Dupak",
        "oneway": "yes",
        "toll": "yes"
      },
      "geometry": {
        "type": "LineString",
        "coordinates": [
          [
            112.7133632,
            -7.2403369
          ],
          [
            112.7132853,
            -7.2406791
          ],
          [
            112.7132463,
            -7.2409186
          ],
          [
            112.7132209,
            -7.2410223
          ],
          [
            112.7131484,
            -7.2411679
          ],
          [
            112.7130063,
            -7.2413868
          ],
          [
            112.7128668,
            -7.2415039
          ],
          [
            112.7126563,
            -7.2415611
          ],
          [
            112.7125638,
            -7.241605
          ],
          [
            112.7124524,
            -7.2416981
          ],
          [
            112.7122445,
            -7.241939
          ],
          [
            112.712156,
            -7.2420613
          ],
          [
            112.7120903,
            -7.2421984
          ]
        ]
      },
      "id": "way/804453702"
    },
    {
      "type": "Feature",
      "properties": {
        "@id": "way/804455954",
        "destination": "Gresik;Pasar Turi",
        "destination:ref": "1;8",
        "highway": "motorway_link",
        "lanes": "3",
        "motorcycle": "no",
        "name": "Simpang Susun Dupak",
        "oneway": "yes",
        "toll": "yes"
      },
      "geometry": {
        "type": "LineString",
        "coordinates": [
          [
            112.7092389,
            -7.2472393
          ],
          [
            112.7092579,
            -7.2468894
          ],
          [
            112.7092998,
            -7.2465943
          ],
          [
            112.7094057,
            -7.2461137
          ],
          [
            112.7095414,
            -7.2455593
          ]
        ]
      },
      "id": "way/804455954"
    },
    {
      "type": "Feature",
      "properties": {
        "@id": "way/804462405",
        "destination": "Gunung Sari;Jambangan;Malang;Pasuruan",
        "destination:ref": "8",
        "highway": "motorway_link",
        "motorcycle": "no",
        "note": "Simpang Susun Kota Satelit",
        "oneway": "yes",
        "toll": "yes"
      },
      "geometry": {
        "type": "LineString",
        "coordinates": [
          [
            112.7006788,
            -7.2906964
          ],
          [
            112.7006015,
            -7.2907006
          ],
          [
            112.7004545,
            -7.2906904
          ],
          [
            112.7003738,
            -7.2906831
          ],
          [
            112.7001787,
            -7.290669
          ],
          [
            112.7000586,
            -7.2906647
          ],
          [
            112.6997668,
            -7.2906647
          ],
          [
            112.699535,
            -7.2906988
          ],
          [
            112.6993033,
            -7.2907754
          ],
          [
            112.6991144,
            -7.2908946
          ],
          [
            112.6989256,
            -7.2910734
          ],
          [
            112.6987282,
            -7.2913203
          ],
          [
            112.6983035,
            -7.292154
          ]
        ]
      },
      "id": "way/804462405"
    },
    {
      "type": "Feature",
      "properties": {
        "@id": "way/808508713",
        "destination": "Waru;Bandara Juanda;Mojokerto",
        "destination:ref": "AH2;15",
        "destination:symbol": "airport",
        "highway": "motorway_link",
        "motorcycle": "no",
        "oneway": "yes",
        "toll": "yes"
      },
      "geometry": {
        "type": "LineString",
        "coordinates": [
          [
            112.7100589,
            -7.3495245
          ],
          [
            112.7101039,
            -7.3490926
          ],
          [
            112.7101273,
            -7.348779
          ],
          [
            112.7101371,
            -7.3483315
          ],
          [
            112.7101308,
            -7.3479546
          ],
          [
            112.7101336,
            -7.347594
          ]
        ]
      },
      "id": "way/808508713"
    },
    {
      "type": "Feature",
      "properties": {
        "@id": "way/831449885",
        "destination": "Banyu Urip;Kota Satelit;Malang",
        "destination:ref": "8",
        "highway": "motorway_link",
        "lanes": "3",
        "motorcycle": "no",
        "name": "Simpang Susun Dupak",
        "oneway": "yes",
        "toll": "yes"
      },
      "geometry": {
        "type": "LineString",
        "coordinates": [
          [
            112.7096742,
            -7.2466316
          ],
          [
            112.7095781,
            -7.2470164
          ],
          [
            112.7093319,
            -7.247774
          ]
        ]
      },
      "id": "way/831449885"
    },
    {
      "type": "Feature",
      "properties": {
        "@id": "way/831534295",
        "destination:ref": "8",
        "highway": "motorway_link",
        "oneway": "yes",
        "toll": "yes"
      },
      "geometry": {
        "type": "LineString",
        "coordinates": [
          [
            112.6973838,
            -7.4438689
          ],
          [
            112.6973301,
            -7.4441083
          ],
          [
            112.6973189,
            -7.4447812
          ],
          [
            112.6973167,
            -7.4449115
          ],
          [
            112.6973533,
            -7.4451834
          ],
          [
            112.6973878,
            -7.4454402
          ]
        ]
      },
      "id": "way/831534295"
    },
    {
      "type": "Feature",
      "properties": {
        "@id": "way/1034158910",
        "destination": "Sidoarjo;Gempol;Pandaan",
        "destination:ref": "8",
        "highway": "motorway_link",
        "maxspeed": "40",
        "motorcycle": "no",
        "oneway": "yes",
        "toll": "yes"
      },
      "geometry": {
        "type": "LineString",
        "coordinates": [
          [
            112.7111923,
            -7.3472052
          ],
          [
            112.711114,
            -7.3475714
          ],
          [
            112.7110094,
            -7.3478381
          ],
          [
            112.710894,
            -7.3480157
          ],
          [
            112.7107492,
            -7.3482036
          ],
          [
            112.7106298,
            -7.3483341
          ],
          [
            112.7105367,
            -7.3484637
          ],
          [
            112.7103396,
            -7.3488646
          ]
        ]
      },
      "id": "way/1034158910"
    },
    {
      "type": "Feature",
      "properties": {
        "@id": "way/1116076317",
        "destination": "Surabaya;Gresik",
        "destination:ref": "8",
        "highway": "motorway_link",
        "motorcycle": "no",
        "oneway": "yes",
        "toll": "yes"
      },
      "geometry": {
        "type": "LineString",
        "coordinates": [
          [
            112.7118811,
            -7.3414377
          ],
          [
            112.7123414,
            -7.3405513
          ],
          [
            112.7124715,
            -7.3403313
          ],
          [
            112.7128129,
            -7.3395663
          ],
          [
            112.7128965,
            -7.3394147
          ],
          [
            112.7129903,
            -7.3392728
          ]
        ]
      },
      "id": "way/1116076317"
    },
    {
      "type": "Feature",
      "properties": {
        "@id": "way/1116089637",
        "destination": "Waru;Sepanjang;Taman;Mojokerto;Menanggal;Juanda",
        "destination:ref": "AH2;15",
        "highway": "motorway_link",
        "motorcycle": "no",
        "oneway": "yes",
        "toll": "yes"
      },
      "geometry": {
        "type": "LineString",
        "coordinates": [
          [
            112.7132671,
            -7.338689
          ],
          [
            112.7132564,
            -7.3388663
          ],
          [
            112.713233,
            -7.3390247
          ],
          [
            112.7132085,
            -7.3391809
          ],
          [
            112.7129977,
            -7.3400501
          ],
          [
            112.7127737,
            -7.3408719
          ],
          [
            112.71272,
            -7.341035
          ]
        ]
      },
      "id": "way/1116089637"
    },
    {
      "type": "Feature",
      "properties": {
        "@id": "way/1225482818",
        "highway": "motorway_link",
        "oneway": "yes"
      },
      "geometry": {
        "type": "LineString",
        "coordinates": [
          [
            112.6966482,
            -7.4500905
          ],
          [
            112.6967293,
            -7.4498969
          ],
          [
            112.6968191,
            -7.4497492
          ]
        ]
      },
      "id": "way/1225482818"
    },
    {
      "type": "Feature",
      "properties": {
        "@id": "way/1384242045",
        "bridge": "yes",
        "destination": "Waru;Juanda",
        "destination:ref": "AH2",
        "highway": "motorway_link",
        "lanes": "1",
        "layer": "1",
        "motorcycle": "no",
        "oneway": "yes",
        "toll": "yes"
      },
      "geometry": {
        "type": "LineString",
        "coordinates": [
          [
            112.7109401,
            -7.343868
          ],
          [
            112.7116962,
            -7.3440987
          ]
        ]
      },
      "id": "way/1384242045"
    },
    {
      "type": "Feature",
      "properties": {
        "@id": "way/1493049313",
        "destination": "Tanjung Perak, Kota Surabaya",
        "destination:ref": "11",
        "highway": "motorway_link",
        "lanes": "3",
        "motorcycle": "no",
        "name": "Simpang Susun Dupak",
        "oneway": "yes",
        "toll": "yes"
      },
      "geometry": {
        "type": "LineString",
        "coordinates": [
          [
            112.7120796,
            -7.2416228
          ],
          [
            112.7125999,
            -7.2410356
          ],
          [
            112.7128432,
            -7.2408304
          ]
        ]
      },
      "id": "way/1493049313"
    }
  ]
}