{"type":"FeatureCollection","crs":{"type":"name","properties":{"name":"EPSG:23836"}},"features":[{"type":"Feature","id":1,"geometry":{"type":"LineString","coordinates":[[224494.46729999967,701209.57410000078],[224505.10879999958,701178.49540000036],[224507.00250000041,701166.68439999968],[224507.97070000041,701159.39660000056],[224508.27579999994,701150.87060000002],[224503.09300000034,701120.8945000004],[224472.35390000045,700949.57430000044],[224442.19450000022,700811.69360000081],[224417.55669999961,700719.14880000055],[224389.04970000032,700640.63859999925],[224375.21870000008,700607.23860000074],[224360.11670000013,700571.70500000007],[224330.10620000027,700512.30399999954],[224308.22259999998,700474.04230000079],[224288.80389999971,700440.58970000036],[224255.82689999975,700389.1520000007],[224213.21609999985,700328.81709999964],[224027.97300000023,700079.53339999914],[223989.73890000023,700025.69840000011],[223881.89350000024,699884.85769999959],[223826.74550000019,699814.95209999941],[223754.12299999967,699711.41569999978],[223624.58899999969,699543.11629999988],[223536.2921000002,699427.57789999992],[223503.59539999999,699382.32110000029],[223442.33750000037,699303.17329999991],[223245.15589999966,699034.52950000018],[223208.16739999969,698972.41080000065],[223178.75679999962,698915.92830000073],[223154.09329999983,698856.62370000035],[223136.05939999968,698805.78659999929],[223118.96949999966,698742.70759999938],[223105.25600000005,698673.79949999973],[223100.99149999954,698597.47800000012],[223098.97759999987,698468.65130000003],[223104.63939999975,698294.2946000006],[223103.84140000027,698072.25809999928],[223104.72020000033,697966.47529999912],[223107.83939999994,697810.37680000067],[223109.77639999986,697628.65699999966],[223109.49509999994,697545.57709999941],[223112.6847000001,697422.34339999966],[223114.35830000043,697172.73760000058],[223114.22119999956,697019.31670000032],[223110.43489999976,696878.53680000082],[223096.84750000015,696675.18329999968],[223090.09489999991,696566.70580000058],[223083.08739999961,696456.38159999996],[223080.1436999999,696418.36500000022],[223068.03849999979,696220.1417999994],[223067.75789999962,696210.3443],[223066.64809999987,696198.08129999973],[223054.83449999988,696009.61130000092],[223024.71210000012,695554.52600000054],[223012.30559999961,695372.8236999996],[223006.41349999979,695262.10089999996],[222996.28220000025,695129.27470000088],[222988.91700000037,695056.74750000052],[222982.01470000017,695006.08210000023],[222966.87459999975,694930.17469999939],[222958.04360000044,694887.30619999953],[222956.04140000045,694879.43370000087],[222938.6911000004,694823.10029999912],[222924.30520000029,694778.38759999909],[222903.84350000042,694727.19759999961],[222888.72369999997,694694.99210000038],[222867.9796000002,694653.80990000069],[222841.0064000003,694609.10300000012],[222818.0345999999,694573.95949999988],[222801.88269999996,694554.10639999993],[222765.13729999959,694508.51930000074],[222738.02830000035,694480.43280000053],[222712.10219999962,694455.58579999954],[222672.25970000029,694421.9207000006],[222645.1425999999,694400.15949999914],[222639.44330000039,694396.0373999998],[222589.23110000044,694358.70560000092],[222539.24139999971,694324.59160000086],[222477.62239999976,694285.05330000073],[222425.48080000002,694253.45030000061],[222203.24739999976,694106.46499999985],[222111.37270000018,694036.4411999993],[222062.39489999972,693992.06430000067],[222011.52670000028,693942.55719999969],[221979.56520000007,693900.69400000013],[221975.12339999992,693893.67400000058],[221958.24199999962,693870.99010000005],[221932.78469999973,693830.98169999942],[221906.89180000033,693779.34039999917],[221888.93090000004,693737.20549999923],[221868.66299999971,693671.47360000014],[221855.23890000023,693601.30430000089],[221850.90409999993,693560.96590000018],[221847.86290000007,693474.52549999952],[221851.60769999959,693352.79539999925],[221863.43039999995,693220.95460000075],[221878.27639999986,693034.48509999923],[221902.9916000003,692743.92049999908],[221912.55920000002,692632.02960000001],[221918.64030000009,692575.80709999986],[221932.58619999979,692502.59579999931],[221950.79619999975,692434.45830000006],[221973.4020999996,692369.75799999945],[222006.68499999959,692305.76060000062],[222033.19890000019,692265.12109999917],[222048.98919999972,692243.40689999983],[222067.70569999982,692222.44329999946],[222087.28309999965,692201.02600000054],[222110.73610000033,692179.83909999952],[222141.71679999959,692153.41840000078],[222174.98419999983,692129.75009999983],[222208.33050000016,692109.55409999937],[222225.05350000039,692100.05870000087],[222242.81469999999,692091.20419999957],[222280.50160000008,692074.51160000078],[222300.04040000029,692065.74469999969],[222319.09389999975,692058.11710000038],[222355.6342000002,692045.2731999997],[222402.88360000029,692030.76569999941],[222467.11249999981,692012.50180000067],[222530.3367999997,691994.66950000077],[222669.36000000034,691956.68779999949],[222963.66999999993,691882.25280000083],[222977.80069999956,691878.29849999957],[223076.09769999981,691850.82860000059],[223153.08750000037,691828.14570000023],[223220.36070000008,691804.58249999955],[223273.41339999996,691781.95470000058],[223325.52720000036,691758.39839999937],[223383.32259999961,691725.41789999977],[223448.68589999992,691679.26339999959],[223511.86099999957,691629.2061999999],[223578.92740000039,691566.06530000083],[223686.96219999995,691447.2268000003],[223833.62050000019,691265.05020000041],[223877.26730000041,691200.2946000006],[223917.03589999955,691129.6688000001],[223926.59740000032,691106.8842999991],[223941.75980000012,691067.75310000032],[223958.68020000029,691011.02740000002],[223963.82390000019,690985.32569999993],[223968.95019999985,690946.45360000059],[223971.28920000046,690897.32090000063],[223972.01750000007,690873.56750000082],[223970.81070000026,690820.98640000075],[223962.70519999973,690749.20040000044],[223947.37550000008,690669.96470000036],[223936.66530000046,690623.0831000004],[223836.81060000043,690205.60649999976],[223828.39169999957,690170.42339999974],[223734.70189999975,689712.09459999949],[223721.20909999963,689640.33330000006],[223657.65859999973,689221.88790000044],[223638.2949000001,689085.88120000064],[223630.9935999997,689031.95380000025],[223610.33449999988,688910.99789999984],[223594.71740000043,688828.99760000035],[223573.89120000042,688727.71429999918],[223536.04989999998,688575.92520000041],[223523.20940000005,688528.2594000008],[223520.40050000045,688518.34149999917],[223514.70430000033,688496.37150000036],[223504.97180000041,688460.63599999994],[223463.0418999996,688323.27969999984],[223433.71030000038,688235.1707000006],[223384.78729999997,688087.29030000046],[223334.36319999956,687939.79759999923],[223327.12079999968,687916.34649999999],[223317.73149999976,687882.04839999974],[223304.50499999989,687834.28309999965],[223273.37399999984,687721.82469999976],[223238.83860000037,687576.85669999942],[223237.06859999988,687569.38220000081],[223235.61919999961,687562.63729999959],[223226.40270000044,687519.84640000015],[223211.11450000014,687454.22309999913],[223190.53710000031,687362.86979999952],[223183.94180000015,687330.1074000001],[223158.12579999957,687179.45130000077],[223139.00729999971,687067.5401000008],[223116.43369999994,686956.26080000028],[223090.43809999991,686845.7349999994],[223061.03170000017,686736.05120000057],[223028.25870000012,686627.30900000036],[222992.14120000042,686519.61879999936],[222952.71239999961,686413.0800999999],[222910.01659999974,686307.79260000028],[222864.08700000029,686203.86659999937],[222817.34210000001,686103.14790000021],[222803.76150000002,686075.85139999911],[222789.83880000003,686048.42239999957],[222753.01159999985,685979.75679999962],[222733.01240000036,685942.33400000073],[222670.4776999997,685834.03639999963],[222627.29250000045,685766.62319999933],[222544.9132000003,685643.54979999922],[222364.45920000039,685401.37959999964],[222301.87889999989,685311.04020000063],[222247.83750000037,685231.99829999916],[222201.37150000036,685157.65279999934],[222150.16590000037,685074.84970000014],[222105.59570000041,684992.97259999998],[222048.6902999999,684877.21849999949],[222003.16220000014,684775.58070000075],[221949.09590000007,684638.17329999991],[221918.73120000027,684549.71000000089],[221884.56790000014,684433.94559999928],[221857.99679999985,684336.0700000003],[221840.0083999997,684249.58060000092],[221832.73929999955,684212.81530000083],[221818.94280000031,684144.13880000077],[221797.11270000041,684007.5131000001],[221786.37000000011,683929.23670000024],[221782.4068,683904.13629999943],[221763.84690000024,683772.80599999987],[221756.12619999982,683713.2388000004],[221735.54559999984,683555.33650000021],[221710.83380000014,683391.56409999914],[221693.73010000028,683282.38269999996],[221669.9796000002,683144.97269999981],[221646.23089999985,683011.32239999995],[221619.64269999973,682872.03360000066],[221584.50329999998,682691.3245000001],[221542.73510000017,682497.4478999991],[221514.25619999971,682375.10109999962],[221487.93429999985,682237.24980000034],[221474.25879999995,682165.56530000083],[221464.79370000027,682104.07459999993],[221451.86039999966,682012.68400000036],[221443.34250000026,681921.00400000066],[221437.84939999972,681854.74550000019],[221433.42239999957,681702.1548999995],[221437.14460000023,681529.91029999964],[221440.89470000006,681447.07149999961],[221451.9282999998,681359.64030000009],[221498.31799999997,681043.52050000057],[221526.5560999997,680845.09019999951],[221540.58019999973,680706.01579999924],[221544.72730000038,680572.64059999958],[221547.53270000033,680475.69180000015],[221544.76910000015,680391.39609999955],[221539.27170000039,680290.28199999966],[221530.36039999966,680207.45979999937],[221523.60099999979,680148.42280000076],[221515.51730000041,680090.11629999988],[221506.08640000038,680030.48340000026],[221501.03799999971,679996.51469999924],[221495.17599999998,679970.09909999929],[221489.54220000003,679935.20179999992],[221484.37280000001,679902.28370000049],[221476.70799999963,679867.5530999992],[221469.88499999978,679839.40179999918],[221466.78789999988,679824.85060000047],[221445.83579999954,679746.31310000084],[221424.01070000045,679665.37629999965],[221405.52809999976,679604.65259999968],[221379.88049999997,679516.12050000019],[221361.47759999987,679460.83730000071],[221327.94199999981,679331.0393000003],[221314.64199999999,679282.77590000071],[221302.95480000041,679237.50850000046],[221299.12679999974,679217.30680000037],[221292.28519999981,679171.42909999937],[221286.30860000011,679134.54150000028],[221281.85429999977,679095.79529999942],[221276.09829999972,679007.87380000018],[221275.17970000021,678925.98790000007],[221277.57859999966,678858.31039999984],[221282.87930000015,678787.61280000024],[221293.79420000035,678707.31420000084],[221305.13640000019,678645.19510000013],[221319.32760000043,678585.89460000023],[221326.16999999993,678557.75950000063],[221334.45749999955,678527.53370000049],[221358.13650000002,678457.17080000043],[221370.23080000002,678424.06819999963],[221380.28569999989,678397.00430000015],[221391.93900000025,678365.39470000006],[221426.8032999998,678278.67180000059],[221479.49880000018,678152.99379999936],[221534.34339999966,678020.51410000026],[221597.42109999992,677861.07059999928],[221657.94799999986,677675.35370000079],[221684.32949999999,677578.1400000006],[221690.14680000022,677554.04150000028],[221723.8097000001,677399.32159999944],[221745.13300000038,677271.48980000056],[221756.04200000037,677180.5418999996],[221764.88970000017,677095.84280000068],[221770.04480000027,676998.05240000039],[221773.21949999966,676889.52529999986],[221772.2285000002,676796.0393000003],[221767.44820000045,676645.38379999995],[221767.16860000044,676637.11240000091],[221765.35890000034,676588.8217999991],[221757.49810000043,676509.90249999985],[221742.82129999995,676418.08129999973],[221730.64470000006,676338.97599999979],[221723.95189999975,676280.45869999938],[221706.75339999981,676201.63209999911],[221688.66139999963,676123.86739999987],[221665.53479999956,676042.55529999919],[221644.62870000023,675965.79820000008],[221638.90160000045,675943.94959999993],[221592.27830000035,675792.18469999917],[221556.61789999995,675671.18999999948],[221539.2293999996,675610.85270000063],[221522.35940000042,675550.05079999939],[221512.46690000035,675518.18530000001],[221415.55620000046,675186.19280000031],[221389.19519999996,675102.00679999962],[221361.92920000013,675017.75489999913],[221169.25079999957,674457.73819999956],[221080.13329999987,674194.85569999926],[221037.17210000008,674056.07110000029],[220991.83600000013,673912.13419999927],[220915.15770000033,673671.76070000045],[220896.54540000018,673611.3021000009],[220835.43840000033,673415.93989999965],[220794.76840000041,673289.38450000063],[220771.35670000035,673206.25850000046],[220757.20239999983,673142.61309999973],[220745.54459999967,673084.31900000013],[220735.89599999972,673026.87539999932],[220727.59399999958,672969.64140000008],[220726.18759999983,672958.74960000068],[220717.17740000039,672845.35089999996],[220713.84640000015,672746.7678999994],[220714.24839999992,672654.32069999911],[220720.83530000038,672546.09060000069],[220730.26659999974,672456.69160000049],[220743.23429999966,672378.13920000009],[220761.45949999988,672283.52789999917],[220779.59489999991,672211.11060000025],[220798.2193,672146.96470000036],[220809.66949999984,672107.64770000055],[220855.40610000025,671981.26520000026],[220880.01350000035,671920.34569999948],[220918.57309999969,671838.36519999988],[220942.97630000021,671790.60500000045],[221012.98340000026,671668.55780000053],[221034.1699000001,671634.69920000061],[221110.24849999975,671517.09459999949],[221174.57019999996,671418.34940000065],[221499.91299999971,670918.43850000016],[221515.26510000043,670894.76700000092],[221641.46729999967,670700.79279999994],[221719.80460000038,670581.38360000029],[221777.98010000028,670490.49159999937],[221819.70069999993,670425.07410000078],[221855.62899999972,670363.56279999949],[221877.56280000042,670325.25809999928],[221895.48180000018,670292.38480000012],[221909.62810000032,670263.42779999971],[221912.04270000011,670258.1297999993],[221941.40380000044,670195.8694000002],[221958.32469999976,670152.45800000057],[221971.11120000016,670118.40369999968],[221983.15759999957,670082.96749999933],[221992.94249999989,670049.36800000072],[222000.59810000006,670017.45030000061],[222008.7265999997,669981.9495000001],[222017.12959999964,669943.26380000077],[222023.92040000018,669902.68789999932],[222030.19759999961,669849.01920000091],[222034.24390000012,669815.94199999981],[222037.03760000039,669771.08830000088],[222038.19790000003,669725.80409999937],[222038.03249999974,669677.73379999958],[222036.31140000001,669630.44940000027],[222034.58710000012,669600.23890000023],[222027.01960000023,669534.66669999994],[222021.21899999958,669495.86590000056],[222012.43850000016,669456.4581000004],[222002.54110000003,669412.20739999972],[221995.72020000033,669386.47780000046],[221989.04449999984,669364.57440000027],[221977.3395999996,669325.46660000086],[221954.97499999963,669264.3133000005],[221932.51439999975,669210.35909999907],[221907.70469999965,669159.80079999939],[221879.70490000024,669107.33080000058],[221807.49490000028,668980.88979999907],[221710.02840000018,668814.76080000028],[221393.95519999973,668278.15460000001],[221258.21399999969,668048.99829999916],[221230.37229999993,668001.6810999997],[221117.95399999991,667804.99239999987],[221069.00760000013,667721.35779999942],[220949.77649999969,667512.73980000056],[220932.48230000027,667483.75249999948],[220824.99380000029,667300.02129999921],[220813.28760000039,667280.02190000005],[220800.84140000027,667258.93909999914],[220491.17239999957,666735.67180000059],[220365.9179999996,666520.08819999918],[220342.57189999986,666478.80639999919],[220328.10429999977,666452.12879999913],[220312.54229999986,666420.67459999956],[220296.55979999993,666386.35639999993],[220280.48790000007,666349.52800000086],[220266.76539999992,666309.8013000004],[220256.92059999984,666280.5120000001],[220247.74789999984,666248.69009999931],[220238.61890000012,666215.60749999993],[220231.45399999991,666182.0485999994],[220224.53170000017,666148.13580000028],[220218.81919999979,666104.63480000012],[220215.31940000039,666074.33660000004],[220213.0438000001,666042.45649999939],[220212.5103000002,665954.66489999928],[220214.21490000002,665914.37890000083],[220219.33669999987,665865.30000000075],[220226.01630000025,665820.5775000006],[220232.36809999961,665783.67329999991],[220240.78369999956,665747.4980999995],[220251.12889999989,665707.50689999945],[220268.5521999998,665652.18600000069],[220275.51800000016,665632.22279999964],[220283.20150000043,665613.3320000004],[220298.20430000033,665575.16359999962],[220314.99509999994,665538.03380000032],[220331.6995000001,665505.31629999913],[220350.16959999967,665473.04040000029],[220373.70220000017,665434.58070000075],[220397.50119999982,665399.65960000083],[220425.53639999963,665362.16009999998],[220455.29389999993,665326.49550000019],[220500.47269999981,665277.57650000043],[220536.25600000005,665243.97719999962],[220574.14769999962,665211.80350000039],[220607.41760000028,665184.26510000043],[220643.44660000037,665157.88670000061],[220714.07359999977,665113.16980000027],[220769.6333999997,665084.04040000029],[220823.05460000038,665060.19769999944],[220900.95859999955,665027.56409999914],[221017.55510000046,664978.73509999923],[221024.4729000004,664975.96749999933],[221031.72159999982,664973.03390000015],[221288.74579999968,664867.17029999942],[221324.64740000013,664853.3535999991],[221724.65899999999,664694.03449999914],[222264.22269999981,664479.15699999966],[222342.01730000041,664452.65839999914],[222421.70189999975,664432.67210000008],[222499.72339999955,664419.69739999995],[222553.29550000001,664415.0831000004],[222606.22869999986,664412.90190000087],[222638.06439999957,664412.98640000075],[222667.73770000041,664414.1557],[222694.82909999974,664415.91220000014],[222721.79930000007,664417.91210000031],[222751.57270000037,664420.74000000022],[222817.56460000016,664427.86350000091]]},"properties":{"OBJECTID":1,"rute":"surgem_B","Shape_Length":42107.745851550164}}]}