{"type":"FeatureCollection","crs":{"type":"name","properties":{"name":"EPSG:23836"}},"features":[{"type":"Feature","id":1,"geometry":{"type":"LineString","coordinates":[[224553.49789999984,701197.19329999946],[224529.49650000036,701164.97049999982],[224523.77010000031,701152.49970000051],[224519.43499999959,701139.89550000057],[224515.73029999994,701129.15980000049],[224514.17030000035,701123.13389999978],[224512.87449999992,701115.31640000083],[224480.42449999973,700945.66679999977],[224450.97159999982,700807.26610000059],[224427.41700000037,700716.89919999987],[224398.72240000032,700638.70979999937],[224384.84649999999,700603.85009999946],[224376.98550000042,700584.43579999916],[224368.98170000035,700566.60290000029],[224350.89790000021,700530.45150000043],[224330.89199999999,700493.00709999911],[224322.29310000036,700477.65149999969],[224312.43450000044,700460.65990000032],[224292.67389999982,700428.05890000053],[224265.11199999973,700385.03390000015],[224223.28500000015,700324.10139999911],[224035.67750000022,700072.31970000081],[223990.92320000008,700008.19270000048],[223891.89400000032,699875.85160000063],[223870.03780000005,699847.56420000084],[223842.60080000013,699810.33330000006],[223828.13760000002,699793.26640000008],[223761.25179999974,699701.18349999934],[223630.36129999999,699536.63350000046],[223561.04320000019,699436.86620000005],[223497.30620000046,699346.14169999957],[223494.05800000019,699342.57139999978],[223488.2352,699335.49689999968],[223478.79889999982,699323.18260000087],[223425.33469999954,699262.14440000057],[223392.60610000044,699219.01070000045],[223271.70940000005,699049.5895000007],[223267.55429999996,699043.04499999993],[223234.71160000004,698991.23059999943],[223205.30179999955,698936.62790000066],[223184.43460000027,698896.15369999968],[223164.51499999966,698850.96810000017],[223148.37949999981,698798.25029999949],[223131.28689999972,698729.5206000004],[223120.83710000012,698673.98029999994],[223115.49830000009,698614.66679999977],[223114.14070000034,698544.04990000091],[223112.73610000033,698467.42860000022],[223114.9944000002,698072.50730000064],[223115.35900000017,698049.14120000042],[223125.46839999966,697678.38939999975],[223128.27730000019,697543.81020000018],[223126.45949999988,697505.02999999933],[223126.49590000045,697464.46869999915],[223128.67080000043,697367.85239999928],[223130.54470000044,697289.03999999911],[223130.70540000033,697278.41300000064],[223130.01809999999,697081.27930000052],[223123.19259999972,696863.21539999917],[223109.08609999996,696659.66310000047],[223094.37150000036,696454.26429999992],[223091.73759999964,696417.59659999982],[223080.51499999966,696217.88010000065],[223080.01400000043,696209.00070000067],[223029.87359999958,695397.60799999908],[223005.53500000015,695080.96829999983],[222998.90830000024,695029.46240000054],[222988.51389999967,694972.53969999962],[222970.18850000016,694885.16640000045],[222967.36820000038,694875.08259999938],[222949.93910000008,694815.58660000004],[222939.55570000038,694782.35050000064],[222928.29040000029,694752.42119999975],[222918.65110000037,694728.66159999929],[222905.16650000028,694698.81069999933],[222883.22900000028,694655.57220000029],[222857.73460000008,694609.39389999956],[222837.73510000017,694578.50650000013],[222815.66069999989,694549.83170000091],[222787.21190000046,694513.66229999997],[222754.68910000008,694478.14719999954],[222722.16820000019,694446.90059999935],[222693.28299999982,694422.05489999987],[222666.17690000031,694400.00620000064],[222651.36459999997,694387.94840000011],[222622.92279999983,694366.91760000028],[222489.34659999982,694280.75740000047],[222440.34090000018,694249.26369999908],[222283.42700000014,694146.24970000051],[222180.21129999962,694073.94209999964],[222112.55800000019,694020.20720000006],[222073.77630000003,693986.76239999942],[222028.2862999998,693939.28759999946],[221980.65000000037,693882.00520000048],[221964.62959999964,693858.67950000055],[221948.94000000041,693834.54639999941],[221929.65730000008,693799.71059999987],[221912.36099999957,693762.54059999995],[221895.53170000017,693707.5998999998],[221878.30929999985,693637.28849999979],[221867.74969999958,693577.87759999931],[221863.05939999968,693532.89489999972],[221860.10219999962,693486.89420000091],[221865.9112999998,693338.83369999938],[221889.86139999982,693065.6640000008],[221928.21669999976,692609.17650000006],[221940.65660000034,692525.92500000075],[221952.14940000046,692473.47100000083],[221969.4160000002,692419.30040000007],[221991.89149999991,692359.54309999943],[222019.59350000042,692308.95069999993],[222054.88090000022,692258.84149999917],[222063.46600000001,692247.59149999917],[222072.85709999967,692236.67290000059],[222092.37930000015,692214.99019999988],[222113.52489999961,692194.29099999927],[222135.56549999956,692175.01779999956],[222182.48599999957,692140.60590000078],[222237.58930000011,692109.37509999983],[222268.06680000015,692093.6035999991],[222299.50530000031,692078.9263000004],[222337.75600000005,692063.89220000058],[222375.58820000011,692051.34620000049],[222697.32029999979,691966.10769999959],[222958.56539999973,691898.48860000074],[222981.91420000046,691891.6548999995],[223081.93360000011,691864.30590000004],[223160.75439999998,691837.57469999976],[223223.61070000008,691812.95199999958],[223277.62440000009,691791.27480000071],[223330.67619999964,691766.77810000069],[223388.47119999956,691732.85759999976],[223453.83579999954,691689.52290000021],[223512.40859999973,691643.01769999973],[223547.85720000044,691611.00950000063],[223602.54090000037,691559.43029999919],[223677.20559999999,691478.12810000032],[223765.70390000008,691372.69009999931],[223848.64549999963,691261.51549999975],[223867.35859999992,691235.72980000079],[223879.86980000045,691216.55990000069],[223900.13609999977,691183.53040000051],[223914.48790000007,691157.8574000001],[223930.68020000029,691125.11730000004],[223952.9450000003,691069.50599999912],[223966.47159999982,691026.7706000004],[223971.63920000009,691004.8507000003],[223974.36959999986,690988.89240000024],[223979.46399999969,690952.48630000092],[223983.05470000021,690888.85569999926],[223982.36129999999,690824.8069000002],[223979.4626000002,690789.49950000085],[223973.66839999985,690748.38790000044],[223967.20110000018,690708.09490000084],[223955.41530000046,690651.49369999953],[223848.83299999963,690203.5549999997],[223841.28639999963,690168.55939999968],[223755.20239999983,689731.27080000006],[223735.25409999955,689620.07899999991],[223671.65799999982,689221.98069999926],[223651.63150000013,689085.22240000032],[223642.82639999967,689026.66229999997],[223631.54550000001,688962.27569999918],[223622.66569999978,688909.13419999927],[223614.41959999967,688865.11539999954],[223605.11110000033,688815.62329999916],[223595.09630000032,688766.82819999941],[223580.50409999955,688704.0354999993],[223557.18589999992,688609.13399999961],[223545.29459999967,688560.91479999945],[223535.40789999999,688525.8981999997],[223531.40460000001,688511.88929999992],[223527.40139999986,688498.00210000016],[223513.38889999967,688446.52170000039],[223503.24820000026,688411.27300000004],[223471.80090000015,688308.7229999993],[223427.54669999983,688181.9394000005],[223399.99550000019,688099.60199999996],[223363.8526999997,687988.98159999959],[223360.09399999958,687978.17950000055],[223345.5784,687936.36419999972],[223321.75779999979,687851.48159999959],[223307.84590000007,687801.70399999991],[223290.41530000046,687735.39619999938],[223288.65720000025,687729.63570000045],[223268.89950000029,687644.59620000049],[223253.56450000033,687573.56550000049],[223251.41860000044,687564.75310000032],[223250.23479999974,687559.36830000021],[223221.56080000009,687435.82840000093],[223197.44120000023,687324.53879999928],[223169.52840000018,687175.56450000033],[223146.81749999989,687054.45450000092],[223121.56630000006,686930.59219999984],[223092.03210000042,686807.68290000036],[223058.23720000032,686685.85930000059],[223020.22580000013,686565.26510000043],[222978.0421000002,686446.04399999976],[222931.74149999954,686328.35080000013],[222881.37920000032,686212.30709999986],[222827.01059999969,686098.06770000048],[222816.7220999999,686075.46949999966],[222796.42349999957,686035.40379999951],[222763.37440000009,685972.09970000014],[222727.14609999955,685909.31680000015],[222673.94830000028,685819.10620000027],[222579.86739999987,685673.39100000076],[222378.71119999979,685401.10769999959],[222305.70569999982,685302.30240000039],[222232.69489999954,685191.2555999998],[222154.00119999982,685060.46130000055],[222082.86840000004,684925.88150000013],[222022.17030000035,684796.00779999979],[221974.74700000044,684677.42960000038],[221924.45419999957,684535.32069999911],[221878.9143000003,684380.9682],[221849.78110000025,684256.04539999925],[221828.85580000002,684143.54829999991],[221807.3376000002,684013.10400000028],[221794.11919999961,683928.3928999994],[221790.6529000001,683903.57970000058],[221779.65589999966,683824.4188000001],[221767.8256000001,683733.2379999999],[221762.54279999994,683694.53649999946],[221713.11980000045,683343.47089999914],[221675.10470000003,683101.57799999975],[221634.27269999962,682879.45830000006],[221577.30099999998,682604.64230000041],[221531.67190000042,682391.82459999993],[221504.75509999972,682256.84860000014],[221486.8311999999,682163.3702000007],[221478.44790000003,682101.92329999991],[221466.74920000043,682006.79450000077],[221458.61830000021,681916.49660000019],[221452.29530000035,681795.16850000061],[221450.79009999987,681685.20610000007],[221449.18510000035,681523.54659999907],[221465.53990000021,681361.64699999988],[221510.60390000045,681043.23860000074],[221537.21960000042,680845.71590000018],[221550.65840000007,680705.95600000024],[221556.75420000032,680510.75339999981],[221557.82770000026,680391.46780000068],[221552.38549999986,680290.47529999912],[221544.30200000014,680207.6305999998],[221537.69699999969,680148.28390000015],[221525.04999999981,680054.74789999984],[221520.00109999999,680019.7508000005],[221502.19099999964,679932.54230000079],[221471.64049999975,679790.05920000002],[221457.6978000002,679736.67620000057],[221437.97470000014,679666.68620000035],[221420.93070000038,679614.34390000068],[221382.82430000044,679483.03289999999],[221361.17779999971,679406.13240000047],[221348.73010000028,679363.3423999995],[221326.85989999957,679279.57469999976],[221321.73979999963,679258.05760000087],[221316.58660000004,679236.50740000047],[221311.95260000043,679215.75310000032],[221303.4665000001,679170.42899999954],[221296.80200000014,679100.12370000035],[221290.6623999998,679069.37340000086],[221287.28990000021,679005.25919999927],[221286.69269999955,678926.54690000042],[221289.29750000034,678849.95639999956],[221295.74739999976,678782.22179999948],[221305.39419999998,678704.79890000075],[221309.50210000016,678683.50999999978],[221312.59860000014,678671.44409999996],[221314.96600000001,678658.20639999956],[221325.42019999959,678610.26429999992],[221336.9796000002,678565.40709999949],[221348.83849999961,678523.90029999986],[221366.83880000003,678467.00879999995],[221385.55989999976,678417.85779999942],[221394.19350000005,678396.7106999997],[221434.27070000023,678291.54030000046],[221460.59009999968,678227.11449999921],[221489.84370000008,678158.37470000051],[221542.51630000025,678031.50239999965],[221591.48300000001,677911.68679999933],[221614.52329999954,677846.17860000022],[221634.92679999955,677783.61309999973],[221668.74480000045,677679.39619999938],[221698.7109000003,677575.87769999914],[221704.50650000013,677552.6417999994],[221731.72109999973,677418.05079999939],[221750.42590000015,677309.2182],[221756.84360000025,677270.29030000046],[221769.64470000006,677165.13169999979],[221778.88929999992,677054.76620000042],[221786.07639999967,676959.27500000037],[221786.57139999978,676930.68920000084],[221787.35709999967,676885.71499999985],[221787.22589999996,676863.88609999977],[221786.93530000001,676756.93080000021],[221786.04629999958,676718.7248999998],[221783.2929999996,676633.65499999933],[221779.55229999963,676586.41579999961],[221771.67229999974,676514.13150000013],[221763.10529999994,676436.01979999989],[221752.65270000044,676361.67989999987],[221736.01290000044,676273.4645000007],[221712.07650000043,676158.73469999991],[221680.47759999987,676038.1696000006],[221644.66309999954,675918.9553999994],[221590.43300000019,675737.80100000091],[221531.40869999956,675546.7957000006],[221521.19610000029,675514.94140000083],[221444.02479999978,675244.16980000027],[221427.57689999975,675188.74200000055],[221412.01429999992,675138.61070000008],[221395.11569999997,675087.14189999923],[221375.25530000031,675027.01579999924],[221360.43410000019,674980.99789999984],[221178.87359999958,674454.20649999939],[221089.28170000017,674191.84390000068],[221057.93599999975,674088.9935999997],[220966.93209999986,673799.6492999997],[220925.27770000044,673669.68840000033],[220906.42260000017,673609.18569999933],[220845.08330000006,673412.8395000007],[220798.69900000002,673267.14460000023],[220784.17289999966,673211.85950000025],[220770.59630000032,673157.14900000021],[220757.62270000018,673093.21570000052],[220744.86500000022,673017.63790000044],[220737.62569999974,672967.84569999948],[220736.4617999997,672956.24599999934],[220727.0251000002,672852.0811999999],[220724.32469999976,672757.23560000025],[220724.14169999957,672690.47699999996],[220726.22979999986,672618.00019999966],[220732.52359999996,672547.10300000012],[220743.4299999997,672448.74609999917],[220752.88460000046,672387.99899999984],[220772.16579999961,672285.22629999928],[220795.42430000007,672192.12790000066],[220823.66029999964,672099.1930999998],[220850.67839999963,672023.22230000049],[220879.24320000038,671951.24279999919],[220908.96860000025,671883.31010000035],[220933.09520000033,671833.80289999954],[220978.6174999997,671749.17640000023],[221025.21250000037,671670.04539999925],[221043.69689999986,671640.4785999991],[221145.31900000013,671483.84930000082],[221179.63019999955,671430.59979999997],[221430.62629999965,671042.16709999926],[221509.39479999989,670922.08349999972],[221524.29440000001,670898.43429999985],[221638.25549999997,670724.84600000083],[221754.92779999971,670545.05250000022],[221787.87019999977,670494.19170000032],[221810.42489999998,670462.18989999965],[221836.12100000028,670421.43960000016],[221852.68510000035,670394.00760000013],[221867.17609999981,670370.54649999924],[221886.55150000006,670336.93160000071],[221907.25989999995,670297.96389999986],[221922.3777999999,670269.73630000092],[221942.80900000036,670228.03729999997],[221962.69859999977,670184.65770000033],[221977.41440000013,670146.11290000007],[221988.20459999982,670114.87939999998],[221997.51690000016,670085.60390000045],[222006.52990000043,670053.55289999954],[222016.1361999996,670015.75129999965],[222025.8853000002,669976.34620000049],[222032.82149999961,669940.03869999945],[222040.06269999966,669894.88450000063],[222046.68140000012,669839.89970000088],[222050.51250000019,669794.75799999945],[222053.00499999989,669742.70549999923],[222053.35390000045,669684.92579999939],[222051.62760000024,669626.26239999942],[222048.65259999968,669588.36700000055],[222043.5203999998,669539.00510000065],[222037.35360000003,669495.70370000042],[222025.39859999996,669440.61680000089],[222016.59759999998,669404.69239999913],[222009.62200000044,669378.53170000017],[222003.02300000004,669355.5223999992],[221990.35809999984,669316.64719999954],[221967.09810000006,669252.39800000004],[221954.04999999981,669220.20219999924],[221939.16970000044,669187.26640000008],[221916.28270000033,669142.14790000021],[221895.16299999971,669100.27969999984],[221821.79349999968,668972.19150000066],[221723.94049999956,668805.6866999995],[221549.99299999978,668508.31880000047],[221409.97759999987,668274.67520000041],[221271.98429999966,668043.86119999923],[221244.28569999989,667995.92469999939],[221138.96910000034,667812.33699999936],[221082.32500000019,667715.46900000051],[220960.30300000031,667509.3292999994],[220941.69419999979,667477.35679999925],[220834.9785000002,667294.35510000028],[220810.61620000005,667252.60950000025],[220694.06290000025,667055.64519999921],[220502.03990000021,666729.92789999954],[220408.14910000004,666569.48980000056],[220375.73730000015,666514.88660000078],[220353.41729999986,666473.26160000078],[220338.46420000028,666446.6838000007],[220322.90189999994,666414.59919999912],[220306.9084999999,666380.69009999931],[220291.6643000003,666343.86140000075],[220277.25719999988,666303.30570000038],[220266.76159999985,666274.70229999907],[220258.16330000013,666244.11869999953],[220250.38190000039,666214.28669999912],[220242.44469999988,666181.12619999982],[220236.21719999984,666146.37260000035],[220230.42810000014,666104.32029999979],[220226.71839999966,666073.44710000046],[220224.78490000032,666041.6110999994],[220224.29509999976,665952.78009999916],[220226.49700000044,665914.22990000062],[220231.50910000037,665866.5887000002],[220237.26159999985,665821.60119999945],[220243.90160000045,665787.92589999922],[220252.48139999993,665748.37780000083],[220262.52919999976,665709.70270000026],[220279.36840000004,665656.32829999924],[220286.76429999992,665635.74569999985],[220294.89919999987,665614.27810000069],[220309.30709999986,665578.84129999951],[220325.99890000001,665542.2313000001],[220342.42789999954,665510.75239999965],[220361.98979999963,665476.79519999959],[220383.31680000015,665441.6428999994],[220406.36550000031,665407.20869999938],[220435.16260000039,665370.60449999943],[220463.89340000041,665333.94510000013],[220508.59819999989,665286.26490000077],[220544.48110000044,665253.16310000047],[220581.34609999973,665220.3041999992],[220615.41060000006,665192.93139999919],[220651.98039999977,665166.53060000017],[220719.46320000011,665123.55120000057],[220774.21740000043,665094.32259999961],[220826.3694000002,665070.17090000026],[220904.37339999992,665039.02999999933],[221023.55360000022,664993.49530000053],[221030.6146999998,664990.65020000003],[221037.75320000015,664987.86040000059],[221284.21019999962,664891.56689999998],[221321.84310000017,664875.07340000011],[221728.74980000034,664711.43850000016],[222270.61990000028,664496.4824000001],[222347.85199999996,664470.49269999936],[222425.13090000022,664450.18689999916],[222501.53079999983,664438.29659999907],[222553.88879999984,664433.1632000003],[222608.25669999979,664431.13609999977],[222636.58320000023,664431.07850000076],[222666.12409999967,664432.2257000003],[222692.36569999997,664433.81680000015],[222722.74600000028,664436.37900000066],[222784.15799999982,664442.67530000024],[222847.51260000002,664449.70050000027],[222905.87930000015,664456.55100000091]]},"properties":{"OBJECTID":1,"rute":"surgem_A","Shape_Length":42172.437672872562}}]}